Brand,ID,Type,Branch Name,Town,Postcode,Lat,Long,MonOp,MonCls,TueOp,TueCls,WedOp,WedCls,ThuOp,ThuCls,FriOp,FriCls,SatOp,SatCls,SunOp,SunCls
Lloyds Bank,77091700,Physical,Penzance,Penzance,TR18 2TN,50.1187,-5.537031,09:00,15:30,09:00,15:30,09:00,15:30,09:00,15:30,09:00,15:30,09:00,13:00,,
Lloyds Bank,30985700,Physical,Falmouth,Falmouth,TR11 3RA,50.155191,-5.071799,09:00,15:30,09:00,15:30,09:00,15:30,09:00,15:30,09:00,15:30,,,,
Lloyds Bank,77091400,Physical,Camborne,Camborne,TR14 8JT,50.21365,-5.300422,09:00,15:30,09:00,15:30,09:00,15:30,09:00,15:30,09:00,15:30,,,,
Lloyds Bank,30987600,Physical,Truro,Truro,TR1 2QT,50.263165,-5.051229,09:00,16:00,09:00,16:00,09:00,16:00,09:00,16:00,09:00,16:00,09:00,15:00,,
Lloyds Bank,30972800,Physical,St Austell,St Austell,PL25 5AZ,50.337326,-4.794514,09:00,15:30,09:00,15:30,09:00,15:30,09:00,15:30,09:00,15:30,09:00,13:00,,
Lloyds Bank,77092300,Physical,Plymstock,Plymouth,PL9 7AD,50.359769,-4.092399,09:00,15:00,09:00,15:00,09:00,15:00,09:00,15:00,09:00,15:00,,,,
Lloyds Bank,30966800,Physical,Plymouth,Plymouth,PL1 1DS,50.370607,-4.139644,09:00,17:00,09:00,17:00,09:00,17:00,09:00,17:00,09:00,17:00,09:00,15:00,,
Lloyds Bank,30945800,Physical,Ivybridge,Ivybridge,PL21 9AD,50.389133,-3.921642,09:00,15:30,09:00,15:30,09:00,15:30,09:00,15:30,09:00,15:30,,,,
Lloyds Bank,30177200,Physical,Saltash,Saltash,PL12 6AJ,50.408529,-4.211622,09:00,15:30,09:00,15:30,09:00,15:30,,,09:00,15:30,,,,
Lloyds Bank,30657900,Physical,Newquay,Newquay,TR7 2RU,50.417538,-5.064037,09:00,15:30,09:00,15:30,09:00,15:30,09:00,15:30,09:00,15:30,,,,
Lloyds Bank,30986900,Physical,Totnes,Totnes,TQ9 5HH,50.431217,-3.684776,09:00,15:30,09:00,15:30,09:00,15:30,09:00,15:30,09:00,15:30,,,,
Lloyds Bank,30880400,Physical,Paignton,Paignton,TQ3 3ER,50.435514,-3.568144,09:00,15:30,09:00,15:30,09:00,15:30,09:00,15:30,09:00,15:30,,,,
Lloyds Bank,30677900,Physical,Liskeard,Liskeard,PL14 6AW,50.455296,-4.465255,09:00,15:00,09:00,15:00,09:00,15:00,09:00,15:00,09:00,15:00,,,,
Lloyds Bank,30986700,Physical,Torquay,Torquay,TQ2 5DW,50.46388,-3.526942,09:00,15:00,09:00,15:00,09:00,15:00,09:00,15:00,09:00,15:00,,,,
Lloyds Bank,77091000,Physical,Bodmin,Bodmin,PL31 2HP,50.470998,-4.721013,09:00,15:00,09:00,15:00,09:00,15:00,09:00,15:00,09:00,15:00,,,,
Lloyds Bank,30989800,Physical,Wadebridge,Wadebridge,PL27 7DE,50.51665,-4.836651,09:00,15:30,09:00,15:30,09:00,15:30,09:00,15:30,09:00,15:30,,,,
Lloyds Bank,30846700,Physical,Newton Abbot,Newton Abbot,TQ12 2QW,50.530668,-3.609857,09:00,16:00,09:00,16:00,09:00,16:00,09:00,16:00,09:00,16:00,09:00,13:00,,
Lloyds Bank,77101300,Physical,Teignmouth,Teignmouth,TQ14 8HW,50.546533,-3.49525,09:00,15:30,09:00,15:30,09:00,15:30,09:00,15:30,09:00,15:30,,,,
Lloyds Bank,77502900,Physical,Weymouth,Weymouth,DT4 8PA,50.610291,-2.454339,09:00,16:00,09:00,16:00,09:00,16:00,09:00,16:00,09:00,16:00,09:00,13:00,,
Lloyds Bank,30949100,Physical,Launceston,Launceston,PL15 8AG,50.63662,-4.36052,09:00,15:00,09:00,15:00,09:00,15:00,09:00,15:00,09:00,15:00,,,,
Lloyds Bank,30991200,Physical,Wareham,Wareham,BH20 4LX,50.685827,-2.109618,09:00,15:30,09:00,15:30,09:00,15:30,,,09:00,15:30,,,,
Lloyds Bank,77251600,Physical,Newport (Isle of Wight),Newport,PO30 1SQ,50.699685,-1.294256,09:00,16:00,09:00,16:00,09:00,16:00,09:00,16:00,09:00,16:00,09:00,13:00,,
Lloyds Bank,30747800,Physical,Seaton,Seaton,EX12 2QH,50.704513,-3.070768,09:00,15:00,09:00,15:00,09:00,15:00,09:00,15:00,09:00,15:00,,,,
Lloyds Bank,77502500,Physical,Poole,Poole,BH15 1AJ,50.714973,-1.984062,09:00,17:00,09:00,17:00,09:00,17:00,09:00,17:00,09:00,17:00,09:00,13:00,,
Lloyds Bank,77503000,Physical,Dorchester,Dorchester,DT1 1UG,50.715284,-2.436908,09:00,15:30,09:00,15:30,09:00,15:30,09:00,15:30,09:00,15:30,,,,
Lloyds Bank,30753600,Physical,Exeter St Thomas,Exeter,EX4 1DF,50.717632,-3.540085,09:00,15:30,09:00,15:30,09:00,15:30,09:00,15:30,09:00,15:30,,,,
Lloyds Bank,30910800,Physical,Bournemouth,Bournemouth,BH1 1ED,50.720675,-1.877254,09:00,17:00,09:00,17:00,09:00,17:00,09:00,17:00,09:00,17:00,09:00,13:00,,
Lloyds Bank,30803700,Physical,Exeter High Street,Exeter,EX4 3NL,50.724522,-3.52974,09:00,17:00,09:00,17:00,09:00,17:00,09:00,17:00,09:00,17:00,09:00,15:00,,
Lloyds Bank,77502400,Physical,Parkstone,Poole,BH14 9DE,50.728704,-1.934914,09:00,15:00,09:00,15:00,09:00,15:00,09:00,15:00,09:00,15:00,,,,
Lloyds Bank,30972100,Physical,Ryde,Ryde,PO33 2LH,50.730314,-1.162322,09:00,16:00,09:00,16:00,09:00,16:00,09:00,16:00,09:00,16:00,,,,
Lloyds Bank,30808900,Physical,Christchurch,Christchurch,BH23 1DU,50.733907,-1.775745,09:00,15:30,09:00,15:30,09:00,15:30,09:00,15:30,09:00,15:30,,,,
Lloyds Bank,30962300,Physical,Okehampton,Okehampton,EX20 1HJ,50.739065,-4.003199,09:00,15:30,09:00,15:30,09:00,15:30,09:00,15:30,09:00,15:30,,,,
Lloyds Bank,77502200,Physical,Winton,Bournemouth,BH9 2AF,50.740296,-1.879005,09:00,15:30,09:00,15:30,09:00,15:30,09:00,15:30,09:00,15:30,,,,
Lloyds Bank,77503300,Physical,New Milton,New Milton,BH25 6HU,50.755368,-1.656209,09:00,15:30,09:00,15:30,09:00,15:30,09:00,15:30,09:00,15:30,,,,
Lloyds Bank,30806300,Physical,Lymington,Lymington,SO41 9ZF,50.758234,-1.541596,09:00,15:00,09:00,15:00,09:00,15:00,09:00,15:00,,,,,,
Lloyds Bank,30928600,Physical,Eastbourne,Eastbourne,BN21 3AH,50.768314,0.284474,09:00,17:00,09:00,17:00,09:00,17:00,09:00,17:00,09:00,17:00,09:00,15:00,,
Lloyds Bank,30909900,Physical,Bognor Regis,Bognor Regis,PO21 1RS,50.78309,-0.673679,09:00,16:00,09:00,16:00,09:00,16:00,09:00,16:00,09:00,16:00,09:00,13:00,,
Lloyds Bank,77250500,Physical,Southsea,Southsea,PO5 3QH,50.786002,-1.088571,09:00,16:00,09:00,16:00,09:00,16:00,09:00,16:00,09:00,16:00,,,,
Lloyds Bank,30728300,Physical,Crediton,Crediton,EX17 3AH,50.790603,-3.659936,09:00,13:00,09:00,13:00,09:00,13:00,09:00,13:00,09:00,13:00,,,,
Lloyds Bank,30935600,Physical,Gosport,Gosport,PO12 1DE,50.795512,-1.122643,09:00,15:30,,,09:00,15:30,09:00,15:30,09:00,15:30,,,,
Lloyds Bank,77100600,Physical,Honiton,Honiton,EX14 1JJ,50.799424,-3.189084,09:00,15:30,09:00,15:30,09:00,15:30,09:00,15:30,09:00,15:30,09:00,13:00,,
Lloyds Bank,77251900,Physical,Portsmouth,Portsmouth,PO1 1BY,50.800309,-1.090755,09:00,17:00,09:00,17:00,09:00,17:00,09:00,17:00,09:00,17:00,09:00,15:00,,
Lloyds Bank,30932500,Physical,Ferndown,Ferndown,BH22 9JB,50.803103,-1.890509,09:00,15:30,09:00,15:30,09:00,15:30,09:00,15:30,09:00,15:30,,,,
Lloyds Bank,30999300,Physical,Worthing,Worthing,BN11 3AU,50.811308,-0.369973,09:00,15:30,09:00,15:30,09:00,15:30,09:00,15:30,09:00,15:30,09:00,13:00,,
Lloyds Bank,30844100,Physical,Brighton,Brighton,BN1 1GL,50.822063,-0.138676,09:00,17:00,09:00,17:00,09:00,17:00,09:00,17:00,09:00,17:00,09:00,15:00,,
Lloyds Bank,30987400,Physical,Hove,Hove,BN3 2EE,50.827507,-0.17033,09:00,17:00,09:00,17:00,09:00,17:00,09:00,17:00,09:00,17:00,,,,
Lloyds Bank,30919700,Physical,Chichester,Chichester,PO19 1HJ,50.836563,-0.778091,09:00,17:00,09:00,17:00,09:00,17:00,09:00,17:00,09:00,17:00,09:00,13:00,,
Lloyds Bank,77631700,Physical,Bexhill,Bexhill-on-Sea,TN40 1AH,50.839762,0.473927,09:00,15:30,09:00,15:30,09:00,15:30,09:00,15:30,09:00,15:30,,,,
Lloyds Bank,77250200,Physical,Cosham,Portsmouth,PO6 3BY,50.845802,-1.066841,09:00,16:00,09:00,16:00,09:00,16:00,09:00,16:00,09:00,16:00,,,,
Lloyds Bank,30848700,Physical,Ringwood,Ringwood,BH24 1BD,50.845989,-1.79235,09:00,16:00,09:00,16:00,09:00,16:00,09:00,16:00,09:00,16:00,09:00,13:00,,
Lloyds Bank,30939700,Physical,Havant,Havant,PO9 1PE,50.85151,-0.981764,09:00,15:30,09:00,15:30,09:00,15:30,09:00,15:30,09:00,15:30,,,,
Lloyds Bank,77250900,Physical,Fareham,Fareham,PO16 0BE,50.85241,-1.17646,09:00,17:00,09:00,17:00,09:00,17:00,09:00,17:00,09:00,17:00,09:00,13:00,,
Lloyds Bank,77631300,Physical,Hastings,Hastings,TN34 1NX,50.855288,0.580828,09:00,17:00,09:00,17:00,09:00,17:00,09:00,17:00,09:00,17:00,09:00,13:00,,
Lloyds Bank,30909200,Physical,Blandford,Blandford Forum,DT11 7EE,50.855826,-2.165133,09:00,15:30,09:00,15:30,09:00,15:30,09:00,15:30,09:00,15:30,,,,
Lloyds Bank,30135600,Physical,Hailsham,Hailsham,BN27 2AE,50.86208,0.260458,09:00,15:00,09:00,15:00,09:00,15:00,09:00,15:00,09:00,15:00,,,,
Lloyds Bank,77501500,Physical,Chard,Chard,TA20 1PS,50.872942,-2.964292,09:00,15:00,09:00,15:00,09:00,15:00,09:00,15:00,09:00,15:00,,,,
Lloyds Bank,30658900,Physical,Lewes,Lewes,BN7 2AD,50.873844,0.015318,09:00,15:30,09:00,15:30,09:00,15:30,09:00,15:30,09:00,15:30,,,,
Lloyds Bank,77251800,Physical,Waterlooville,Portsmouth,PO7 7HN,50.879074,-1.032091,09:00,15:30,09:00,15:30,09:00,15:30,09:00,15:30,09:00,15:30,09:00,13:00,,
Lloyds Bank,77101400,Physical,Tiverton,Tiverton,EX16 6LF,50.903064,-3.486933,09:00,17:00,,,09:00,17:00,09:00,17:00,09:00,17:00,09:00,13:00,,
Lloyds Bank,77950400,Physical,Southampton Above Bar St,Southampton,SO14 7DT,50.905498,-1.404054,09:00,17:00,09:00,17:00,09:00,17:00,09:00,17:00,09:00,17:00,09:00,15:00,,
Lloyds Bank,30139500,Physical,Southampton Hedge End,Southampton,SO30 4QU,50.912855,-1.304455,09:00,15:00,09:00,15:00,09:00,15:00,09:00,15:00,09:00,15:00,,,,
Lloyds Bank,30908600,Physical,Southampton Bitterne,Southampton,SO18 1DA,50.91469,-1.359611,09:00,15:30,09:00,15:30,09:00,15:30,09:00,15:30,09:00,15:30,,,,
Lloyds Bank,30987300,Physical,Southampton Totton,Southampton,SO40 3TH,50.918699,-1.487686,09:00,15:30,09:00,15:30,09:00,15:30,09:00,15:30,09:00,15:30,,,,
Lloyds Bank,30975800,Physical,Southampton Shirley,Southampton,SO15 3TX,50.92296,-1.43396,09:00,15:30,09:00,15:30,09:00,15:30,09:00,15:30,09:00,15:30,,,,
Lloyds Bank,30945400,Physical,Ilminster,Ilminster,TA19 0DL,50.926746,-2.910481,09:00,15:00,,,09:00,15:00,09:00,15:00,,,,,,
Lloyds Bank,77500800,Physical,Yeovil,Yeovil,BA20 1RN,50.941601,-2.63268,09:00,16:00,09:00,16:00,09:00,16:00,09:00,16:00,09:00,16:00,09:00,15:00,,
Lloyds Bank,30748200,Physical,Sherborne,Sherborne,DT9 3BD,50.947437,-2.515498,09:00,15:00,09:00,15:00,09:00,15:00,09:00,15:00,09:00,15:00,,,,
Lloyds Bank,30641500,Physical,Burgess Hill,Burgess Hill,RH15 9AH,50.955447,-0.129685,09:00,15:00,09:00,15:00,09:00,15:00,09:00,15:00,09:00,15:00,09:00,13:00,,
Lloyds Bank,77251700,Physical,Eastleigh,Eastleigh,SO50 9YT,50.969472,-1.351491,09:00,15:30,09:00,15:30,09:00,15:30,09:00,15:30,09:00,15:30,09:00,13:00,,
Lloyds Bank,30756400,Physical,Uckfield,Uckfield,TN22 1AX,50.972343,0.097013,09:00,15:00,09:00,15:00,09:00,15:00,09:00,15:00,09:00,15:00,,,,
Lloyds Bank,30183000,Physical,Haywards Heath,Haywards Heath,RH16 4ND,50.997288,-0.103331,09:00,15:30,09:00,15:30,09:00,15:30,09:00,15:30,09:00,15:30,,,,
Lloyds Bank,30966100,Physical,Petersfield,Petersfield,GU32 3HL,51.004233,-0.937777,09:00,15:30,09:00,15:30,09:00,15:30,09:00,15:30,09:00,15:30,,,,
Lloyds Bank,30984500,Physical,Taunton,Taunton,TA1 1HN,51.015216,-3.102769,09:00,17:00,09:00,17:00,09:00,17:00,09:00,17:00,09:00,17:00,09:00,15:00,,
Lloyds Bank,30907800,Physical,Bideford,Bideford,EX39 2AD,51.017745,-4.205487,09:00,15:30,09:00,15:30,09:00,15:30,09:00,15:30,09:00,15:30,,,,
Lloyds Bank,30652100,Physical,Gillingham (Dorset),Gillingham,SP8 4AQ,51.037616,-2.274456,09:00,15:30,09:00,15:30,09:00,15:30,09:00,15:30,09:00,15:30,,,,
Lloyds Bank,30728500,Physical,Crowborough,Crowborough,TN6 1DA,51.058849,0.162978,09:00,15:00,09:00,15:00,09:00,15:00,09:00,15:00,09:00,15:00,,,,
Lloyds Bank,30944100,Physical,Horsham,Horsham,RH12 1PA,51.06223,-0.329197,09:00,15:30,09:00,15:30,09:00,15:30,09:00,15:30,09:00,15:30,09:00,13:00,,
Lloyds Bank,30997100,Physical,Winchester,Winchester,SO23 9BU,51.06269,-1.315732,09:00,17:00,09:00,17:00,09:00,17:00,09:00,17:00,09:00,17:00,09:00,13:00,,
Lloyds Bank,30974100,Physical,Salisbury,Salisbury,SP1 1DB,51.070065,-1.795903,09:00,17:00,09:00,17:00,09:00,17:00,09:00,17:00,09:00,17:00,09:00,15:00,,
Lloyds Bank,30933400,Physical,Folkestone,Folkestone,CT20 1RZ,51.079051,1.17964,09:00,15:30,09:00,15:30,09:00,15:30,09:00,15:30,09:00,15:30,09:00,13:00,,
Lloyds Bank,30904900,Physical,Barnstaple,Barnstaple,EX31 1BE,51.079402,-4.060723,09:00,17:00,09:00,17:00,09:00,17:00,09:00,17:00,09:00,17:00,09:00,13:00,,
Lloyds Bank,30923600,Physical,Cranbrook,Cranbrook,TN17 3DJ,51.095922,0.534066,09:00,15:00,09:00,15:00,09:00,15:00,09:00,15:00,09:00,15:00,,,,
Lloyds Bank,30923800,Physical,Crawley,Crawley,RH10 1DU,51.116308,-0.188126,09:00,17:00,09:00,17:00,09:00,17:00,09:00,17:00,09:00,17:00,09:00,15:00,,
Lloyds Bank,30929200,Physical,East Grinstead,East Grinstead,RH19 1AH,51.124046,-0.0087,09:00,15:30,09:00,15:30,09:00,15:30,09:00,15:30,09:00,15:30,,,,
Lloyds Bank,30982800,Physical,Street,Street,BA16 0ED,51.127007,-2.739678,09:00,17:00,09:00,17:00,09:00,17:00,09:00,17:00,09:00,17:00,,,,
Lloyds Bank,30674700,Physical,Bridgwater,Bridgwater,TA6 3AY,51.128614,-3.00374,09:00,16:00,09:00,16:00,09:00,16:00,09:00,16:00,09:00,16:00,09:00,13:00,,
Lloyds Bank,77631600,Physical,Tunbridge Wells,Tunbridge Wells,TN1 1RP,51.13215,0.263733,09:00,17:00,09:00,17:00,09:00,17:00,09:00,17:00,09:00,17:00,09:00,13:00,,
Lloyds Bank,30902800,Physical,Ashford,Ashford,TN24 8SS,51.149086,0.871802,09:00,16:00,,,09:00,16:00,09:00,16:00,09:00,16:00,09:00,13:00,,
Lloyds Bank,30934900,Physical,Godalming,Godalming,GU7 1AT,51.185474,-0.612773,09:00,15:00,09:00,15:00,09:00,15:00,09:00,15:00,09:00,15:00,,,,
Lloyds Bank,30991300,Physical,Warminster,Warminster,BA12 9BD,51.204865,-2.180396,09:00,17:00,09:00,17:00,09:00,17:00,09:00,17:00,09:00,17:00,,,,
Lloyds Bank,77951700,Physical,Andover,Andover,SP10 1NW,51.207299,-1.478744,09:00,17:00,09:00,17:00,09:00,17:00,09:00,17:00,09:00,17:00,09:00,13:00,,
Lloyds Bank,30992900,Physical,Wells,Wells,BA5 2SJ,51.208898,-2.647063,09:00,16:00,09:00,16:00,09:00,16:00,09:00,16:00,09:00,16:00,09:00,13:00,,
Lloyds Bank,77631100,Physical,Deal,Deal,CT14 7AD,51.222424,1.402961,09:00,15:00,09:00,15:00,09:00,15:00,09:00,15:00,09:00,15:00,,,,
Lloyds Bank,30937400,Physical,Guildford,Guildford,GU1 3AG,51.23597,-0.571842,09:00,17:00,09:00,17:00,09:00,17:00,09:00,17:00,09:00,17:00,09:00,13:00,,
Lloyds Bank,30679400,Physical,Burnham-on-Sea,Burnham-on-Sea,TA8 1NP,51.237127,-2.997365,09:00,15:00,09:00,15:00,09:00,15:00,09:00,15:00,09:00,15:00,,,,
Lloyds Bank,30745600,Physical,Redhill,Redhill,RH1 1ND,51.240615,-0.168422,09:00,15:30,09:00,15:30,09:00,15:30,09:00,15:30,09:00,15:30,09:00,13:00,,
Lloyds Bank,77490500,Physical,Aldershot,Aldershot,GU11 1JQ,51.248365,-0.763508,09:00,17:00,,,09:00,17:00,09:00,17:00,09:00,17:00,,,,
Lloyds Bank,30735800,Physical,Basingstoke,Basingstoke,RG21 7JU,51.267581,-1.087784,09:00,17:00,09:00,17:00,09:00,17:00,09:00,17:00,09:00,17:00,09:00,15:00,,
Lloyds Bank,30974900,Physical,Sevenoaks,Sevenoaks,TN13 1LG,51.270367,0.192678,09:00,15:30,09:00,15:30,09:00,15:30,09:00,15:30,09:00,15:30,09:00,13:00,,
Lloyds Bank,30953700,Physical,Maidstone,Maidstone,ME14 1RW,51.27433,0.523221,09:00,17:00,09:00,17:00,09:00,17:00,09:00,17:00,09:00,17:00,09:00,15:00,,
Lloyds Bank,30645700,Physical,Canterbury,Canterbury,CT1 2SE,51.278648,1.080272,09:00,17:00,09:00,17:00,09:00,17:00,09:00,17:00,09:00,17:00,09:00,13:00,,
Lloyds Bank,77492500,Physical,Fleet,Fleet,GU51 4DD,51.28092,-0.842942,09:00,15:30,09:00,15:30,09:00,15:30,09:00,15:30,09:00,15:30,,,,
Lloyds Bank,30917200,Physical,Caterham,Caterham,CR3 6YT,51.281792,-0.078197,09:00,15:30,09:00,15:30,09:00,15:30,09:00,15:30,09:00,15:30,,,,
Lloyds Bank,77492200,Physical,Farnborough,Farnborough,GU14 7SE,51.291038,-0.755819,09:00,17:00,09:00,17:00,09:00,17:00,09:00,17:00,09:00,17:00,09:00,13:00,,
Lloyds Bank,30998000,Physical,Woking,Woking,GU21 6ER,51.318948,-0.558108,09:00,17:00,09:00,17:00,09:00,17:00,09:00,17:00,09:00,17:00,09:00,13:00,,
Lloyds Bank,77500400,Physical,Trowbridge,Trowbridge,BA14 8EU,51.321614,-2.208595,09:00,17:00,09:00,17:00,09:00,17:00,09:00,17:00,09:00,17:00,09:00,13:00,,
Lloyds Bank,30969300,Physical,Ramsgate,Ramsgate,CT11 9DL,51.333528,1.419395,09:00,15:30,09:00,15:30,09:00,15:30,09:00,15:30,09:00,15:30,09:00,13:00,,
Lloyds Bank,30803300,Physical,Epsom,Epsom,KT19 8AT,51.333729,-0.267014,09:00,15:30,09:00,15:30,09:00,15:30,09:00,15:30,,,09:00,13:00,,
Lloyds Bank,30993900,Physical,West Byfleet,West Byfleet,KT14 6LN,51.337388,-0.50406,09:30,15:00,09:30,15:00,09:30,15:00,09:30,15:00,09:30,15:00,,,,
Lloyds Bank,77490800,Physical,Camberley,Camberley,GU15 3SJ,51.338541,-0.746465,09:00,17:00,09:00,17:00,09:00,17:00,09:00,17:00,09:00,17:00,09:00,13:00,,
Lloyds Bank,30180600,Physical,Sittingbourne,Sittingbourne,ME10 4BD,51.340223,0.733666,09:00,15:30,09:00,15:30,09:00,15:30,09:00,15:30,09:00,15:30,09:00,13:00,,
Lloyds Bank,77302800,Physical,New Addington,New Addington,CR0 0JB,51.342198,-0.015952,09:00,15:00,09:00,15:00,09:00,15:00,09:00,15:00,09:00,15:00,,,,
Lloyds Bank,77501000,Physical,Weston-super-Mare,Weston-super-Mare,BS23 1JL,51.350171,-2.979496,09:00,17:00,09:00,17:00,09:00,17:00,09:00,17:00,09:00,17:00,09:00,13:00,,
Lloyds Bank,30926300,Physical,Devizes,Devizes,SN10 1JD,51.352706,-1.995093,09:00,16:00,09:00,16:00,09:00,16:00,09:00,16:00,09:00,16:00,,,,
Lloyds Bank,30648200,Physical,Worle,Weston-super-Mare,BS22 6JS,51.360777,-2.925986,09:00,16:00,09:00,16:00,09:00,16:00,09:00,16:00,09:00,16:00,,,,
Lloyds Bank,30983600,Physical,Sutton,Sutton,SM1 1DT,51.361422,-0.192359,09:00,17:00,09:00,17:00,09:00,17:00,09:00,17:00,09:00,17:00,09:00,15:00,,
Lloyds Bank,77632500,Physical,Herne Bay,Herne bay,CT6 5NH,51.371269,1.128711,09:00,15:30,09:00,15:30,09:00,15:30,09:00,15:30,09:00,15:30,,,,
Lloyds Bank,30963100,Physical,Orpington,Orpington,BR6 0LJ,51.37696,0.10028,09:00,15:30,09:00,15:30,09:00,15:30,09:00,15:30,09:00,15:30,09:00,13:00,,
Lloyds Bank,77300100,Physical,Croydon,Croydon,CR0 1TN,51.37718,-0.10225,09:00,17:00,09:00,17:00,09:00,17:00,09:00,17:00,09:00,17:00,09:00,15:00,,
Lloyds Bank,30846300,Physical,Chatham,Chatham,ME4 4DQ,51.383227,0.523524,09:00,15:30,09:00,15:30,09:00,15:30,09:00,15:30,09:00,15:30,09:00,13:00,,
Lloyds Bank,30905400,Physical,Bath,Bath,BA1 1DN,51.383388,-2.360973,09:30,16:30,09:30,16:30,09:30,16:30,09:30,16:30,09:30,16:30,09:00,15:00,,
Lloyds Bank,30990900,Physical,Walton-on-Thames,Walton-on-Thames,KT12 1DU,51.383969,-0.416803,09:00,15:30,09:00,15:30,09:00,15:30,09:00,15:30,09:00,15:30,,,,
Lloyds Bank,30954500,Physical,Margate,Margate,CT9 1JG,51.387523,1.381542,09:00,15:30,09:00,15:30,09:00,15:30,09:00,15:30,09:00,15:30,,,,
Lloyds Bank,30986200,Physical,Surbiton,Surbiton,KT6 4QS,51.39332,-0.304565,09:00,15:30,09:00,15:30,09:00,15:30,09:00,15:30,09:00,15:30,,,,
Lloyds Bank,30958900,Physical,Newbury,Newbury,RG14 5BQ,51.401386,-1.324378,09:00,17:00,09:00,17:00,09:00,17:00,09:00,17:00,09:00,17:00,09:00,13:00,,
Lloyds Bank,30845100,Physical,Bromley,Bromley,BR1 1NA,51.405815,0.014944,09:00,17:00,09:00,17:00,09:00,17:00,09:00,17:00,09:00,17:00,09:00,15:00,,
Lloyds Bank,30905200,Physical,Barry,Barry,CF63 4TZ,51.406035,-3.265728,09:30,16:30,09:30,16:30,09:30,16:30,09:30,16:30,09:30,16:30,09:00,13:00,,
Lloyds Bank,77300700,Physical,Mitcham,Mitcham,CR4 2JS,51.406398,-0.162976,09:00,15:30,09:00,15:30,09:00,15:30,09:00,15:30,09:00,15:30,,,,
Lloyds Bank,77492100,Physical,Wokingham,Wokingham,RG40 1AP,51.409531,-0.834102,09:00,15:00,09:00,15:00,09:00,15:00,09:00,15:00,09:00,15:00,,,,
Lloyds Bank,30947700,Physical,Kingston Upon Thames,Kingston upon Thames,KT1 1RE,51.41087,-0.30221,09:00,17:00,09:00,17:00,09:00,17:00,09:00,17:00,09:00,17:00,09:00,15:00,,
Lloyds Bank,30109100,Physical,Bishopsworth,Bishopsworth,BS13 8HA,51.412639,-2.621303,09:30,16:30,09:30,16:30,09:30,16:30,09:30,16:30,09:30,16:30,,,,
Lloyds Bank,30635400,Physical,Bracknell,Bracknell,RG12 1BT,51.416482,-0.747684,09:00,17:00,09:00,17:00,09:00,17:00,09:00,17:00,09:00,17:00,09:00,13:00,,
Lloyds Bank,30954900,Physical,Marlborough,Marlborough,SN8 1LU,51.420725,-1.731514,09:00,15:00,09:00,15:00,09:00,15:00,09:00,15:00,09:00,15:00,,,,
Lloyds Bank,77301300,Physical,Wimbledon,Wimbledon,SW19 4DR,51.421025,-0.20796,09:00,17:00,09:00,17:00,09:00,17:00,09:00,17:00,09:00,17:00,09:00,13:00,,
Lloyds Bank,30748800,Physical,Sidcup,Sidcup,DA14 6EJ,51.426103,0.103228,09:00,15:30,09:00,15:30,09:00,15:30,09:00,15:30,09:00,15:30,,,,
Lloyds Bank,30755900,Physical,Tooting,Tooting,SW17 9ND,51.427513,-0.167381,09:00,15:30,09:00,15:30,09:00,15:30,09:00,15:30,09:00,15:30,,,,
Lloyds Bank,30675000,Physical,Streatham,Streatham,SW16 1BE,51.432045,-0.129611,09:00,17:00,09:00,17:00,09:00,17:00,09:00,17:00,09:00,17:00,09:00,15:00,,
Lloyds Bank,30944200,Physical,Staines,Staines,TW18 4PP,51.433945,-0.510813,09:00,15:30,09:00,15:30,09:00,15:30,09:00,15:30,09:00,15:30,09:00,13:00,,
Lloyds Bank,30948300,Physical,Knowle (Bristol),Knowle,BS4 2PY,51.43541,-2.56733,09:00,17:00,09:00,17:00,09:00,17:00,09:00,17:00,09:00,17:00,09:00,13:00,,
Lloyds Bank,30188800,Physical,Clevedon,Clevedon,BS21 6NG,51.436092,-2.851906,09:00,17:00,09:00,17:00,09:00,17:00,09:00,17:00,09:00,17:00,09:00,13:00,,
Lloyds Bank,30936000,Physical,Gravesend,Gravesend,DA11 0AR,51.441954,0.367626,09:00,17:00,09:00,17:00,09:00,17:00,09:00,17:00,09:00,17:00,09:00,15:00,,
Lloyds Bank,30925300,Physical,Dartford,Dartford,DA1 1BY,51.444619,0.217165,09:00,16:00,09:00,16:00,09:00,16:00,09:00,16:00,09:00,16:00,09:00,13:00,,
Lloyds Bank,30732200,Physical,Feltham,Feltham,TW13 4AX,51.446495,-0.410592,09:00,15:30,09:00,15:30,09:00,15:30,09:00,15:30,09:00,15:30,,,,
Lloyds Bank,77492300,Physical,Woodley,Reading,RG5 3JR,51.451523,-0.90634,09:00,15:00,09:00,15:00,09:00,15:00,09:00,15:00,09:00,15:00,,,,
Lloyds Bank,77493200,Physical,Reading,Reading,RG1 2BT,51.455782,-0.971672,09:00,17:00,09:00,17:00,09:00,17:00,09:00,17:00,09:00,17:00,09:00,15:00,,
Lloyds Bank,30840400,Physical,Clifton (Bristol),Clifton,BS8 1RQ,51.456841,-2.60708,09:00,15:30,09:00,15:30,09:00,15:30,09:00,15:30,09:00,15:30,,,,
Lloyds Bank,30907600,Physical,Bexleyheath,Bexleyheath,DA6 7DP,51.457074,0.143771,09:00,16:00,09:00,16:00,09:00,16:00,09:00,16:00,09:00,16:00,09:00,15:00,,
Lloyds Bank,30629600,Physical,Cabot Circus,Cabot Circus,BS1 3BA,51.458393,-2.585861,09:30,17:30,09:30,17:30,09:30,17:30,09:30,17:30,09:30,17:30,09:00,15:00,,
Lloyds Bank,30919900,Physical,Chippenham,Chippenham,SN15 3HA,51.458894,-2.115821,09:00,17:00,09:00,17:00,,,09:00,17:00,09:00,17:00,09:00,13:00,,
Lloyds Bank,77910900,Physical,Brixton,Brixton,SW2 5SQ,51.461029,-0.117094,09:00,17:00,09:00,17:00,09:00,17:00,09:00,17:00,09:00,17:00,,,,
Lloyds Bank,77912900,Physical,Lewisham,Lewisham,SE13 6JG,51.461976,-0.012776,09:00,17:00,09:00,17:00,09:00,17:00,09:00,17:00,09:00,17:00,09:00,15:00,,
Lloyds Bank,77687300,Physical,Clapham,None,SW11 1PR,51.462345,-0.167819,09:00,17:00,,,09:00,17:00,09:00,17:00,09:00,17:00,,,,
Lloyds Bank,30948000,Physical,Kingswood,Kingswood,BS15 8HT,51.462363,-2.506175,09:30,16:30,09:30,16:30,09:30,16:30,09:30,16:30,09:30,16:30,09:00,13:00,,
Lloyds Bank,30845700,Physical,Richmond,Richmond,TW9 1BP,51.462519,-0.303239,09:00,15:30,09:00,15:30,09:00,15:30,09:00,15:30,09:00,15:30,09:00,13:00,,
Lloyds Bank,30624600,Physical,Hounslow,Hounslow,TW3 1ES,51.468072,-0.363924,09:00,17:00,09:00,17:00,09:00,17:00,09:00,17:00,09:00,17:00,09:00,15:00,,
Lloyds Bank,30643800,Physical,Camberwell Green,None,SE5 7AB,51.47401,-0.09234,09:00,16:00,09:00,16:00,09:00,16:00,09:00,16:00,09:00,16:00,09:00,13:00,,
Lloyds Bank,77132100,Physical,Grays,Grays,RM17 6LX,51.477349,0.322649,09:00,15:30,09:00,15:30,09:00,15:30,09:00,15:30,09:00,15:30,09:00,13:00,,
Lloyds Bank,30732400,Physical,Fishponds,Fishponds,BS16 3UJ,51.479514,-2.531695,09:30,16:30,09:30,16:30,09:30,16:30,09:30,16:30,09:30,16:30,,,,
Lloyds Bank,30969100,Physical,Cardiff Queen Street,None,CF10 2AG,51.481982,-3.177055,09:00,17:00,09:00,17:00,09:00,17:00,09:00,17:00,09:00,17:00,09:00,15:00,,
Lloyds Bank,30990200,Physical,Fulham,Fulham,SW6 1NS,51.482452,-0.199973,09:00,15:30,09:00,15:30,09:00,15:30,09:00,15:30,09:00,15:30,,,,
Lloyds Bank,30989400,Physical,Cardiff Victoria Park,Victoria Park,CF5 1BL,51.483846,-3.222878,09:30,16:30,09:30,16:30,09:30,16:30,09:30,16:30,09:30,16:30,09:00,13:00,,
Lloyds Bank,30165600,Physical,Portishead,Portishead,BS20 6BJ,51.484178,-2.769425,09:00,15:30,09:00,15:30,09:00,15:30,09:00,15:30,09:00,15:30,,,,
Lloyds Bank,30647200,Physical,Chelsea,Chelsea,SW3 4LX,51.490518,-0.16175,09:00,17:00,09:00,17:00,09:00,17:00,09:00,17:00,09:00,17:00,09:00,13:00,,
Lloyds Bank,30998800,Physical,Woolwich,Woolwich,SE18 6HZ,51.4909,0.067645,09:00,17:00,09:00,17:00,09:00,17:00,09:00,17:00,09:00,17:00,09:00,13:00,,
Lloyds Bank,77911200,Physical,Hammersmith,Hammersmith,W6 9HW,51.49266,-0.226016,09:00,17:00,09:00,17:00,09:00,17:00,09:00,17:00,09:00,17:00,09:00,15:00,,
Lloyds Bank,30993800,Physical,Westbury-on-Trym,Westbury-on-Trym,BS9 3DA,51.493494,-2.618738,09:30,16:30,09:30,16:30,09:30,16:30,09:30,16:30,09:30,16:30,09:00,13:00,,
Lloyds Bank,30809600,Physical,Cardiff Roath Park,Roath,CF24 3PJ,51.494475,-3.165804,09:30,16:30,09:30,16:30,09:30,16:30,09:30,16:30,09:30,16:30,09:00,13:00,,
Lloyds Bank,30906900,Physical,Victoria,None,SW1E 5JL,51.496953,-0.141067,09:00,17:00,09:00,17:00,09:00,17:00,09:00,17:00,09:00,17:00,,,,
Lloyds Bank,30946500,Physical,Kensington High Street,None,W8 4SN,51.501157,-0.193238,09:00,17:00,09:00,17:00,09:00,17:00,09:00,17:00,09:00,17:00,09:00,13:00,,
Lloyds Bank,30979000,Physical,London Bridge,None,SE1 1NQ,51.50444,-0.090309,10:00,16:00,10:00,16:00,10:00,16:00,10:00,16:00,10:00,16:00,,,,
Lloyds Bank,30656700,Physical,Canary Wharf,None,E14 5FW,51.504798,-0.019549,09:30,16:00,09:30,16:00,09:30,16:00,09:30,16:00,09:30,16:00,,,,
Lloyds Bank,30673400,Physical,Bridgend,None,CF31 1EQ,51.507204,-3.578072,09:30,16:30,09:30,16:30,09:30,16:30,09:30,16:30,09:30,16:30,09:00,13:00,,
Lloyds Bank,77914600,Physical,Hayes,Hayes,UB3 2HW,51.507322,-0.418422,09:00,17:00,09:00,17:00,09:00,17:00,09:00,17:00,09:00,17:00,,,,
Lloyds Bank,30994200,Physical,West Drayton,West Drayton,UB7 7BZ,51.50875,-0.47393,09:00,15:00,09:00,15:00,09:00,15:00,09:00,15:00,09:00,15:00,,,,
Lloyds Bank,30117500,Physical,Coxs & Kings,None,WC2N 5LL,51.509085,-0.124013,10:00,16:00,10:00,16:00,10:00,16:00,10:00,16:00,10:00,16:00,,,,
Lloyds Bank,30917900,Physical,Strand,None,WC2N 5LL,51.509085,-0.124013,10:00,16:00,10:00,16:00,10:00,16:00,10:00,16:00,10:00,16:00,,,,
Lloyds Bank,77491700,Physical,Slough High Street,Slough,SL1 1DH,51.509441,-0.594288,09:00,17:00,09:00,17:00,09:00,17:00,09:00,17:00,09:00,17:00,09:00,13:00,,
Lloyds Bank,77914500,Physical,Southall,Southall,UB1 1JT,51.51129,-0.37689,09:00,17:00,09:00,17:00,09:00,17:00,09:00,17:00,09:00,17:00,09:00,15:00,,
Lloyds Bank,30995700,Physical,Cardiff Whitchurch,Whitchurch,CF14 2XH,51.513635,-3.220495,09:00,14:30,09:00,14:30,09:00,14:30,09:00,14:30,09:00,14:30,,,,
Lloyds Bank,30918300,Physical,Cheapside,None,EC2V 6EN,51.513654,-0.09213,10:00,16:00,10:00,16:00,10:00,16:00,10:00,16:00,10:00,16:00,,,,
Lloyds Bank,30845800,Physical,Ealing,Ealing,W5 5JU,51.51386,-0.30203,09:00,17:00,09:00,17:00,09:00,17:00,09:00,17:00,09:00,17:00,09:00,15:00,,
Lloyds Bank,30963800,Physical,London Oxford Street 399,None,W1C 2BU,51.514112,-0.150485,09:00,17:00,09:00,17:00,09:00,17:00,09:00,17:00,09:00,17:00,09:00,15:00,,
Lloyds Bank,30841200,Physical,Commercial Road,None,E1 2JR,51.514522,-0.059504,10:00,16:00,10:00,16:00,10:00,16:00,10:00,16:00,10:00,16:00,,,,
Lloyds Bank,30987100,Physical,London Oxford Street 113-117,None,W1D 2HW,51.515896,-0.135212,10:00,17:00,10:00,17:00,10:00,17:00,10:00,17:00,10:00,17:00,,,,
Lloyds Bank,30929000,Physical,Whitechapel,None,E1 1DU,51.516401,-0.069395,09:00,17:00,09:00,17:00,09:00,17:00,09:00,17:00,09:00,17:00,,,,
Lloyds Bank,30957400,Physical,Moorgate,None,EC2R 6EJ,51.517255,-0.088609,08:30,18:00,08:30,18:00,08:30,18:00,08:30,18:00,,,,,,
Lloyds Bank,30188200,Physical,Tottenham Court Road,None,W1T 4TH,51.521843,-0.135909,10:00,16:00,10:00,16:00,10:00,16:00,10:00,16:00,10:00,16:00,,,,
Lloyds Bank,30164800,Physical,Pontyclun,Pontyclun,CF72 9EB,51.522186,-3.391816,09:30,16:30,09:30,16:30,09:30,16:30,09:30,16:30,09:30,16:30,,,,
Lloyds Bank,30903900,Physical,Baker Street,None,NW1 6XB,51.522317,-0.157765,09:00,15:30,09:00,15:30,09:00,15:30,09:00,15:30,09:00,15:30,,,,
Lloyds Bank,77491400,Physical,Maidenhead,Maidenhead,SL6 1JS,51.522678,-0.72045,09:00,15:30,09:00,15:30,09:00,15:30,09:00,15:30,09:00,15:30,09:00,13:00,,
Lloyds Bank,30623200,Physical,Patchway,Patchway,BS34 5JH,51.528086,-2.57105,09:30,16:30,09:30,16:30,09:30,16:30,09:30,16:30,09:30,16:30,,,,
Lloyds Bank,30929300,Physical,East Ham,East Ham,E6 2HN,51.533468,0.054281,09:00,17:00,09:00,17:00,09:00,17:00,09:00,17:00,09:00,17:00,09:00,15:00,,
Lloyds Bank,30945700,Physical,Islington,Islington,N1 0PJ,51.534157,-0.105657,09:00,17:00,09:00,17:00,09:00,17:00,09:00,17:00,09:00,17:00,09:00,15:00,,
Lloyds Bank,77951000,Physical,Southend-on-Sea,Southend-on-Sea,SS1 1HT,51.536625,0.713427,09:00,17:00,09:00,17:00,09:00,17:00,09:00,17:00,09:00,17:00,09:00,15:00,,
Lloyds Bank,30644300,Physical,Camden Town,Camden Town,NW1 0NG,51.5383,-0.14187,09:00,17:00,09:00,17:00,09:00,17:00,09:00,17:00,09:00,17:00,09:00,15:00,,
Lloyds Bank,77130800,Physical,Barking,Barking,IG11 8ED,51.538451,0.079824,09:00,17:00,09:00,17:00,09:00,17:00,09:00,17:00,09:00,17:00,09:00,15:00,,
Lloyds Bank,77911300,Physical,Kilburn,Kilburn,NW6 4HY,51.539194,-0.194543,09:00,17:00,09:00,17:00,09:00,17:00,09:00,17:00,09:00,17:00,09:00,15:00,,
Lloyds Bank,77731200,Physical,Yate,Yate,BS37 4AT,51.54058,-2.413113,09:00,17:00,09:00,17:00,09:00,17:00,09:00,17:00,09:00,17:00,09:00,13:00,,
Lloyds Bank,77912200,Physical,Stratford Broadway,Stratford,E15 1NG,51.541441,0.00181,09:00,17:00,09:00,17:00,09:00,17:00,09:00,17:00,09:00,17:00,09:00,15:00,,
Lloyds Bank,30415700,Physical,Stratford Westfield,Montfichet Road,E20 1EH,51.54359,-0.00664,10:00,18:00,10:00,18:00,10:00,18:00,10:00,18:00,10:00,18:00,10:00,16:00,,
Lloyds Bank,30989100,Physical,Uxbridge,Uxbridge,UB8 1JD,51.545528,-0.478617,09:00,17:00,09:00,17:00,09:00,17:00,09:00,17:00,09:00,17:00,09:00,15:00,,
Lloyds Bank,30993200,Physical,Wembley,Wembley,HA0 2AB,51.552203,-0.298328,09:00,17:00,09:00,17:00,09:00,17:00,09:00,17:00,09:00,17:00,09:00,15:00,,
Lloyds Bank,30984100,Physical,Swindon Old Town,Swindon,SN1 3EN,51.552264,-1.77412,09:00,15:30,09:00,15:30,09:00,15:30,09:00,15:30,09:00,15:30,,,,
Lloyds Bank,30945100,Physical,Ilford,Ilford,IG1 1DS,51.558478,0.072204,09:00,17:00,09:00,17:00,09:00,17:00,09:00,17:00,09:00,17:00,09:00,15:00,,
Lloyds Bank,77131200,Physical,Hornchurch,Hornchurch,RM12 6JL,51.560933,0.221128,09:00,15:30,09:00,15:30,09:00,15:30,09:00,15:30,09:00,15:30,,,,
Lloyds Bank,30656000,Physical,Swindon Brunel Centre,Swindon,SN1 1JZ,51.561136,-1.785128,09:00,17:00,09:00,17:00,09:00,17:00,09:00,17:00,09:00,17:00,09:00,15:00,,
Lloyds Bank,77131100,Physical,Basildon,Basildon,SS14 1DZ,51.570404,0.457248,09:00,16:00,09:00,16:00,09:00,16:00,09:00,16:00,09:00,16:00,09:00,15:00,,
Lloyds Bank,30935000,Physical,Golders Green,None,NW11 8LJ,51.572074,-0.196131,09:00,15:30,09:00,15:30,09:00,15:30,09:00,15:30,09:00,15:30,,,,
Lloyds Bank,30909100,Physical,Caerphilly,None,CF83 1WD,51.574478,-3.220223,09:30,16:30,09:30,16:30,09:30,16:30,09:30,16:30,09:30,16:30,,,,
Lloyds Bank,30971300,Physical,Romford,Romford,RM1 3AA,51.578614,0.180364,09:00,17:00,09:00,17:00,09:00,17:00,09:00,17:00,09:00,17:00,09:00,15:00,,
Lloyds Bank,30939200,Physical,Harrow,Harrow,HA1 2EB,51.581856,-0.332669,09:00,17:00,09:00,17:00,09:00,17:00,09:00,17:00,09:00,17:00,09:00,15:00,,
Lloyds Bank,77915600,Physical,Walthamstow,Walthamstow,E17 7JH,51.584015,-0.023576,09:00,17:00,09:00,17:00,09:00,17:00,09:00,17:00,09:00,17:00,09:00,15:00,,
Lloyds Bank,30845900,Physical,Newport,None,NP20 1WX,51.585762,-2.994596,09:00,17:00,09:00,17:00,09:00,17:00,09:00,17:00,09:00,17:00,09:00,13:00,,
Lloyds Bank,30144800,Physical,Kingsbury,Kingsbury,NW9 9DX,51.5858,-0.27553,09:00,15:00,09:00,15:00,09:00,15:00,09:00,15:00,09:00,15:00,,,,
Lloyds Bank,30969400,Physical,Rayleigh,Rayleigh,SS6 7EB,51.586321,0.605346,09:00,15:30,09:00,15:30,09:00,15:30,09:00,15:30,09:00,15:30,,,,
Lloyds Bank,77911000,Physical,Wood Green,Wood Green,N22 6EF,51.59427,-0.10846,09:00,17:00,09:00,17:00,09:00,17:00,09:00,17:00,09:00,17:00,09:00,15:00,,
Lloyds Bank,30968200,Physical,Port Talbot,Port Talbot,SA13 1NR,51.595604,-3.78312,09:30,16:30,09:30,16:30,09:30,16:30,09:30,16:30,09:30,16:30,09:00,13:00,,
Lloyds Bank,30967200,Physical,Pontypridd,Pontypridd,CF37 2TF,51.601943,-3.34109,09:30,16:30,09:30,16:30,09:30,16:30,09:30,16:30,09:30,16:30,09:00,13:00,,
Lloyds Bank,77490900,Physical,Didcot,Didcot,OX11 7LQ,51.606746,-1.24134,09:00,15:30,09:00,15:30,09:00,15:30,09:00,15:30,09:00,15:30,09:00,13:00,,
Lloyds Bank,30186200,Physical,Thornbury,Thornbury,BS35 2AE,51.608895,-2.525799,09:00,15:00,09:00,15:00,09:00,15:00,09:00,15:00,09:00,15:00,,,,
Lloyds Bank,30847600,Physical,Edgware,Edgware,HA8 7JL,51.613655,-0.276443,09:00,17:00,09:00,17:00,09:00,17:00,09:00,17:00,09:00,17:00,09:00,15:00,,
Lloyds Bank,77913600,Physical,North Finchley,North Finchley,N12 8PX,51.61742,-0.1771,09:00,15:30,09:00,15:30,09:00,15:30,09:00,15:30,09:00,15:30,09:00,15:00,,
Lloyds Bank,30954600,Physical,Swansea Oxford Street,None,SA1 3AF,51.619784,-3.944717,09:00,17:00,09:00,17:00,09:00,17:00,09:00,17:00,09:00,17:00,09:00,15:00,,
Lloyds Bank,30673300,Physical,Brentwood,Brentwood,CM14 4RN,51.620784,0.303135,09:00,15:30,,,09:00,15:30,09:00,15:30,09:00,15:30,09:00,13:00,,
Lloyds Bank,30755700,Physical,Tonypandy,Tonypandy,CF40 1AL,51.621895,-3.454067,09:00,15:00,09:00,15:00,09:00,15:00,09:00,15:00,09:00,15:00,,,,
Lloyds Bank,77916800,Physical,Edmonton Green,Edmonton Green,N9 0TZ,51.624249,-0.058165,09:00,15:30,09:00,15:30,09:00,15:30,09:00,15:30,09:00,15:30,09:00,13:00,,
Lloyds Bank,30942800,Physical,High Wycombe,High Wycombe,HP11 2HL,51.629893,-0.753251,09:00,17:00,09:00,17:00,09:00,17:00,09:00,17:00,09:00,17:00,09:00,15:00,,
Lloyds Bank,30918900,Physical,Chepstow,Chepstow,NP16 5HZ,51.64166,-2.676286,09:30,16:30,09:30,16:30,09:30,16:30,09:30,16:30,,,,,,
Lloyds Bank,30925800,Physical,Loughton,Loughton,IG10 3SW,51.647188,0.081817,09:00,15:30,09:00,15:30,09:00,15:30,09:00,15:30,09:00,15:30,,,,
Lloyds Bank,30998600,Physical,Enfield,Enfield,EN1 3EE,51.65243,-0.080353,09:00,17:00,09:00,17:00,09:00,17:00,09:00,17:00,09:00,17:00,09:00,13:00,,
Lloyds Bank,77651400,Physical,Swansea Enterprise Park,None,SA7 9DL,51.653875,-3.911619,09:30,16:30,09:30,16:30,09:30,16:30,09:30,16:30,09:30,16:30,,,,
Lloyds Bank,30924900,Physical,Cwmbran,Cwmbran,NP44 1XN,51.654599,-3.02047,09:30,16:30,09:30,16:30,09:30,16:30,09:30,16:30,09:30,16:30,09:00,13:00,,
Lloyds Bank,30992100,Physical,Watford,Watford,WD17 2UB,51.655758,-0.396439,09:00,17:00,09:00,17:00,09:00,17:00,09:00,17:00,09:00,17:00,09:00,15:00,,
Lloyds Bank,30807600,Physical,Neath,Neath,SA11 1LP,51.66202,-3.8062,09:30,16:30,09:30,16:30,09:30,16:30,09:30,16:30,09:30,16:30,09:00,13:00,,
Lloyds Bank,30654000,Physical,Blackwood,Blackwood,NP12 1YJ,51.666313,-3.195396,09:30,16:30,09:30,16:30,09:30,16:30,09:30,16:30,09:30,16:30,09:00,13:00,,
Lloyds Bank,30935300,Physical,Gorseinon,Gorseinon,SA4 4BR,51.669207,-4.038389,09:30,16:30,09:30,16:30,09:30,16:30,09:30,16:30,09:30,16:30,,,,
Lloyds Bank,30675300,Physical,Abingdon,Abingdon,OX14 5AP,51.670048,-1.284531,09:00,15:30,09:00,15:30,09:00,15:30,09:00,15:30,09:00,15:30,,,,
Lloyds Bank,30656500,Physical,Llanelli,Llanelli,SA15 3YD,51.682115,-4.16157,09:30,16:30,09:30,16:30,09:30,16:30,09:30,16:30,09:30,16:30,09:00,13:00,,
Lloyds Bank,30162000,Physical,Pembroke Dock,Pembroke Dock,SA72 6BX,51.69378,-4.940286,09:30,16:30,09:30,16:30,09:30,16:30,09:30,16:30,09:30,16:30,,,,
Lloyds Bank,30919100,Physical,Chesham,Chesham,HP5 1BT,51.706579,-0.61168,09:00,15:00,09:00,15:00,09:00,15:00,09:00,15:00,09:00,15:00,,,,
Lloyds Bank,30808200,Physical,Aberdare,Aberdare,CF44 7AR,51.713803,-3.444968,09:30,16:30,09:30,16:30,09:30,16:30,09:30,16:30,,,09:00,13:00,,
Lloyds Bank,77270700,Physical,Cirencester,Cirencester,GL7 1QJ,51.71669,-1.969791,09:00,17:00,09:00,17:00,09:00,17:00,09:00,17:00,09:00,17:00,09:00,13:00,,
Lloyds Bank,30164000,Physical,Pontardawe,Pontardawe,SA8 4ED,51.719568,-3.849726,09:00,14:30,09:00,14:30,,,09:00,14:30,09:00,14:30,,,,
Lloyds Bank,30667700,Physical,Lydney,Lydney,GL15 5RA,51.727487,-2.528718,09:30,16:30,09:30,16:30,09:30,16:30,09:30,16:30,09:30,16:30,09:00,13:00,,
Lloyds Bank,30125100,Physical,Cowley,Oxford,OX4 3XS,51.732031,-1.218226,09:00,17:00,09:00,17:00,09:00,17:00,09:00,17:00,,,09:00,13:00,,
Lloyds Bank,30918500,Physical,Chelmsford,Chelmsford,CM1 1DU,51.733252,0.473835,09:00,16:00,09:00,16:00,09:00,16:00,09:00,16:00,09:00,16:00,09:00,15:00,,
Lloyds Bank,30982900,Physical,Stroud,Stroud,GL5 3BD,51.74546,-2.218965,09:30,16:30,09:30,16:30,09:30,16:30,09:30,16:30,09:30,16:30,09:00,13:00,,
Lloyds Bank,30955500,Physical,Merthyr Tydfil,None,CF47 8AD,51.746592,-3.378048,09:30,16:30,09:30,16:30,09:30,16:30,09:30,16:30,09:30,16:30,09:00,13:00,,
Lloyds Bank,30985600,Physical,Thame,Thame,OX9 2BN,51.74672,-0.977525,09:00,15:30,09:00,15:30,09:00,15:30,09:00,15:30,09:00,15:30,,,,
Lloyds Bank,77952600,Physical,Hemel Hempstead,Hemel Hempstead,HP1 1BH,51.75016,-0.472774,09:00,15:30,09:00,15:30,09:00,15:30,09:00,15:30,09:00,15:30,09:00,13:00,,
Lloyds Bank,30972500,Physical,St Albans,St Albans,AL1 3YQ,51.75204,-0.338684,09:00,15:30,09:00,15:30,09:00,15:30,09:00,15:30,09:00,15:30,09:00,15:00,,
Lloyds Bank,77230100,Physical,Oxford Carfax,Oxford,OX1 4AB,51.752168,-1.257627,09:00,17:00,09:00,17:00,09:00,17:00,09:00,17:00,09:00,17:00,09:00,15:00,,
Lloyds Bank,77051300,Physical,Hoddesdon,Hoddesdon,EN11 8EZ,51.759529,-0.011945,09:00,15:00,09:00,15:00,09:00,15:00,09:00,15:00,09:00,15:00,,,,
Lloyds Bank,30938900,Physical,Harlow,Harlow,CM20 1JF,51.76992,0.095,09:00,17:00,09:00,17:00,09:00,17:00,09:00,17:00,09:00,17:00,09:00,15:00,,
Lloyds Bank,30929700,Physical,Ebbw Vale,Ebbw Vale,NP23 6HP,51.780667,-3.207577,09:30,16:30,09:30,16:30,09:30,16:30,09:30,16:30,09:30,16:30,,,,
Lloyds Bank,30997800,Physical,Witney,Witney,OX28 6RD,51.785408,-1.485832,09:00,17:00,09:00,17:00,09:00,17:00,09:00,17:00,09:00,17:00,09:00,13:00,,
Lloyds Bank,30920900,Physical,Clacton-on-Sea,Clacton-on-Sea,CO15 1QP,51.788114,1.152823,09:00,15:30,09:00,15:30,09:00,15:30,09:00,15:30,09:00,15:30,09:00,13:00,,
Lloyds Bank,77650300,Physical,Ammanford,Ammanford,SA18 3DB,51.792255,-3.988011,09:30,16:30,09:30,16:30,09:30,16:30,09:30,16:30,09:30,16:30,,,,
Lloyds Bank,30848500,Physical,Hertford,Hertford,SG14 1DF,51.796296,-0.077748,09:00,15:00,09:00,15:00,09:00,15:00,09:00,15:00,09:00,15:00,,,,
Lloyds Bank,77663200,Physical,Witham,Witham,CM8 1AQ,51.798352,0.638747,09:00,15:00,09:00,15:00,09:00,15:00,09:00,15:00,09:00,15:00,,,,
Lloyds Bank,30679200,Physical,Brynmawr,Brynmawr,NP23 4XR,51.800179,-3.17631,09:00,14:30,09:00,14:30,09:00,14:30,09:00,14:30,09:00,14:30,,,,
Lloyds Bank,30993100,Physical,Welwyn Garden City,Welwyn Garden City,AL8 6BA,51.80182,-0.205773,09:00,15:30,09:00,15:30,09:00,15:30,09:00,15:30,09:00,15:30,,,,
Lloyds Bank,30939800,Physical,Haverfordwest,Haverfordwest,SA61 2JX,51.801969,-4.967883,09:30,16:30,09:30,16:30,09:30,16:30,09:30,16:30,09:30,16:30,09:00,13:00,,
Lloyds Bank,30957100,Physical,Monmouth,Monmouth,NP25 3XH,51.811379,-2.716427,09:00,14:30,09:00,14:30,09:00,14:30,09:00,14:30,09:00,14:30,,,,
Lloyds Bank,30903800,Physical,Aylesbury,Aylesbury,HP20 1TD,51.81681,-0.812929,09:00,17:00,09:00,17:00,09:00,17:00,09:00,17:00,09:00,17:00,09:00,15:00,,
Lloyds Bank,30808300,Physical,Abergavenny,Abergavenny,NP7 5HB,51.821578,-3.017336,09:30,16:30,09:30,16:30,09:30,16:30,09:30,16:30,09:30,16:30,09:00,13:00,,
Lloyds Bank,30676900,Physical,Carmarthen,Carmarthen,SA31 1BW,51.857393,-4.304675,09:30,16:30,09:30,16:30,09:30,16:30,09:30,16:30,09:30,16:30,09:00,13:00,,
Lloyds Bank,30934800,Physical,Gloucester Eastgate Street,Gloucester,GL1 1NU,51.864905,-2.244935,09:00,17:00,09:00,17:00,09:00,17:00,09:00,17:00,09:00,17:00,09:00,15:00,,
Lloyds Bank,77051200,Physical,Bishops Stortford,Bishop's Stortford,CM23 2LN,51.872118,0.159038,09:00,15:30,09:00,15:30,09:00,15:30,09:00,15:30,09:00,15:30,09:00,13:00,,
Lloyds Bank,30667600,Physical,Luton,Luton,LU1 2BB,51.879337,-0.416604,09:00,17:00,09:00,17:00,09:00,17:00,09:00,17:00,09:00,17:00,09:00,15:00,,
Lloyds Bank,30635700,Physical,Braintree,Braintree,CM7 1UN,51.879613,0.551496,09:00,15:30,09:00,15:30,09:00,15:30,09:00,15:30,09:00,15:30,,,,
Lloyds Bank,30927700,Physical,Dunstable,Dunstable,LU6 1JY,51.886441,-0.520959,09:00,15:00,09:00,15:00,09:00,15:00,09:00,15:00,09:00,15:00,,,,
Lloyds Bank,77661500,Physical,Colchester,Colchester,CO1 1DU,51.889527,0.898905,09:00,17:00,09:00,17:00,09:00,17:00,09:00,17:00,09:00,17:00,09:00,15:00,,
Lloyds Bank,77231000,Physical,Bicester,Bicester,OX26 6JE,51.897549,-1.150851,09:00,17:00,09:00,17:00,09:00,17:00,09:00,17:00,09:00,17:00,09:00,13:00,,
Lloyds Bank,30918700,Physical,Cheltenham,Cheltenham,GL50 1EW,51.89967,-2.073248,09:30,16:30,09:30,16:30,09:30,16:30,09:30,16:30,09:30,16:30,09:00,15:00,,
Lloyds Bank,30847700,Physical,Stevenage,Stevenage,SG1 1EA,51.904138,-0.201731,09:00,17:00,09:00,17:00,09:00,17:00,09:00,17:00,09:00,17:00,09:00,13:00,,
Lloyds Bank,30746400,Physical,Ross-on-Wye,Ross-on-Wye,HR9 5HJ,51.91433,-2.585624,09:00,15:00,09:00,15:00,09:00,15:00,09:00,15:00,09:00,15:00,,,,
Lloyds Bank,77211600,Physical,Leighton Buzzard,Leighton Buzzard,LU7 1EU,51.916558,-0.661539,09:00,15:00,09:00,15:00,09:00,15:00,09:00,15:00,09:00,15:00,,,,
Lloyds Bank,30754400,Physical,Stow-on-the-Wold,Cheltenham,GL54 1BJ,51.929631,-1.722875,09:00,15:00,09:00,15:00,,,09:00,15:00,09:00,15:00,,,,
Lloyds Bank,77270300,Physical,Brecon,Brecon,LD3 7AR,51.947672,-3.391513,09:30,16:30,09:30,16:30,09:30,16:30,09:30,16:30,09:30,16:30,,,,
Lloyds Bank,30943000,Physical,Hitchin,Hitchin,SG5 1JQ,51.948863,-0.278236,09:00,15:00,09:00,15:00,09:00,15:00,09:00,15:00,09:00,15:00,,,,
Lloyds Bank,30957500,Physical,Moreton-in-Marsh,Moreton-in-Marsh,GL56 0AY,51.991035,-1.70266,09:00,15:00,09:00,15:00,09:00,15:00,09:00,15:00,09:00,15:00,,,,
Lloyds Bank,30755500,Physical,Tewkesbury,Tewkesbury,GL20 5AW,51.994034,-2.157334,09:00,15:30,09:00,15:30,09:00,15:30,09:00,15:30,09:00,15:30,,,,
Lloyds Bank,77210800,Physical,Bletchley,Milton Keynes,MK2 2DW,51.995007,-0.730299,09:00,16:00,09:00,16:00,09:00,16:00,09:00,16:00,09:00,16:00,,,,
Lloyds Bank,30972400,Physical,Saffron Walden,Saffron Walden,CB10 1HF,52.023468,0.240937,09:00,15:00,09:00,15:00,09:00,15:00,09:00,15:00,09:00,15:00,,,,
Lloyds Bank,30983100,Physical,Sudbury,Sudbury,CO10 2EL,52.038195,0.730523,09:00,15:30,09:00,15:30,09:00,15:30,09:00,15:30,09:00,15:30,09:00,13:00,,
Lloyds Bank,30155300,Physical,Milton Keynes,Milton Keynes,MK9 3EH,52.044884,-0.757273,09:00,17:00,09:00,17:00,09:00,17:00,09:00,17:00,09:00,17:00,09:00,15:00,,
Lloyds Bank,30971600,Physical,Royston,Royston,SG8 7BL,52.048294,-0.023943,09:00,15:00,09:00,15:00,09:00,15:00,09:00,15:00,09:00,15:00,,,,
Lloyds Bank,30805500,Physical,Hereford,Hereford,HR1 2AE,52.056021,-2.715766,09:00,17:00,09:00,17:00,09:00,17:00,09:00,17:00,09:00,17:00,09:00,13:00,,
Lloyds Bank,30945500,Physical,Ipswich Cornhill North,Ipswich,IP1 1DG,52.058406,1.153056,09:00,17:00,09:00,17:00,09:00,17:00,09:00,17:00,09:00,17:00,09:00,15:00,,
Lloyds Bank,30904200,Physical,Banbury,Banbury,OX16 5EF,52.061268,-1.336091,09:00,17:00,09:00,17:00,09:00,17:00,09:00,17:00,09:00,17:00,09:00,13:00,,
Lloyds Bank,30638800,Physical,Shipston-on-Stour,Shipston-on-Stour,CV36 4AJ,52.063318,-1.625071,09:00,15:00,09:00,15:00,09:00,15:00,09:00,15:00,09:00,15:00,,,,
Lloyds Bank,30939900,Physical,Haverhill,Haverhill,CB9 8BA,52.082059,0.43695,09:00,15:30,09:00,15:30,09:00,15:30,09:00,15:30,09:00,15:30,,,,
Lloyds Bank,77650400,Physical,Cardigan,Cardigan,SA43 1JW,52.083109,-4.661355,09:30,16:30,09:30,16:30,09:30,16:30,09:30,16:30,09:30,16:30,,,,
Lloyds Bank,77050600,Physical,Biggleswade,Biggleswade,SG18 0JD,52.087005,-0.264196,09:00,15:30,09:00,15:30,09:00,15:30,09:00,15:30,09:00,15:30,09:00,13:00,,
Lloyds Bank,30998500,Physical,Woodbridge,Woodbridge,IP12 1AF,52.092636,1.317075,09:00,15:30,09:00,15:30,09:00,15:30,09:00,15:30,09:00,15:30,,,,
Lloyds Bank,30803400,Physical,Evesham,Evesham,WR11 4DQ,52.093129,-1.947301,09:00,16:00,09:00,16:00,09:00,16:00,09:00,16:00,09:00,16:00,09:00,13:00,,
Lloyds Bank,30954100,Physical,Malvern Belle Vue Terrace,Malvern,WR14 4QG,52.1109,-2.330107,09:00,15:30,09:00,15:30,09:00,15:30,09:00,15:30,09:00,15:30,,,,
Lloyds Bank,30906600,Physical,Bedford,Bedford,MK40 1SB,52.136283,-0.466859,09:00,17:00,09:00,17:00,09:00,17:00,09:00,17:00,09:00,17:00,09:00,13:00,,
Lloyds Bank,30982600,Physical,Stratford-upon-Avon,Stratford-upon-Avon,CV37 6AG,52.192969,-1.706103,09:00,17:00,09:00,17:00,09:00,17:00,09:00,17:00,09:00,17:00,09:00,13:00,,
Lloyds Bank,77272800,Physical,Worcester,Worcester,WR1 3PY,52.193402,-2.221062,09:00,17:00,09:00,17:00,09:00,17:00,09:00,17:00,09:00,17:00,09:00,15:00,,
Lloyds Bank,30644200,Physical,Cambridge University,Cambridge,CB2 3HQ,52.205594,0.12148,09:00,17:00,09:00,17:00,09:00,17:00,09:00,17:00,09:00,17:00,09:00,15:00,,
Lloyds Bank,30636200,Physical,Alcester,Alcester,B49 5AX,52.213541,-1.871013,09:00,15:00,09:00,15:00,09:00,15:00,09:00,15:00,09:00,15:00,,,,
Lloyds Bank,30949900,Physical,Leominster,Leominster,HR6 8LT,52.227132,-2.737275,09:30,16:30,09:30,16:30,09:30,16:30,09:30,16:30,09:30,16:30,,,,
Lloyds Bank,30960900,Physical,Northampton,Northampton,NN1 1DJ,52.236669,-0.897047,09:00,17:00,09:00,17:00,09:00,17:00,09:00,17:00,09:00,17:00,09:00,15:00,,
Lloyds Bank,77050500,Physical,Newmarket,Newmarket,CB8 8LF,52.244726,0.407432,09:00,16:00,09:00,16:00,09:00,16:00,09:00,16:00,09:00,16:00,09:00,13:00,,
Lloyds Bank,77662600,Physical,Bury St Edmunds,Bury St Edmunds,IP33 1DB,52.24529,0.712964,09:00,16:00,09:00,16:00,09:00,16:00,09:00,16:00,09:00,16:00,09:00,13:00,,
Lloyds Bank,30751900,Physical,Southam,Southam,CV47 0HA,52.253009,-1.387561,09:30,15:00,09:30,15:00,09:30,15:00,09:30,15:00,09:30,15:00,,,,
Lloyds Bank,30925500,Physical,Daventry,Daventry,NN11 4HT,52.258355,-1.161339,09:00,15:30,09:00,15:30,09:00,15:30,09:00,15:30,09:00,15:30,09:00,13:00,,
Lloyds Bank,77273500,Physical,Droitwich,Droitwich,WR9 8DG,52.2673,-2.149817,09:00,15:30,09:00,15:30,09:00,15:30,09:00,15:30,09:00,15:30,,,,
Lloyds Bank,30166800,Physical,Presteigne,Presteigne,LD8 2AU,52.272673,-3.005883,09:00,15:00,,,,,,,09:00,15:00,,,,
Lloyds Bank,30991500,Physical,Warwick,Warwick,CV34 4BJ,52.281242,-1.588992,09:00,15:30,09:00,15:30,09:00,15:30,09:00,15:30,09:00,15:30,,,,
Lloyds Bank,30949300,Physical,Leamington Spa,Leamington Spa,CV32 4BB,52.290528,-1.535292,09:00,17:00,09:00,17:00,09:00,17:00,09:00,17:00,09:00,17:00,09:00,13:00,,
Lloyds Bank,77210700,Physical,Wellingborough,Wellingborough,NN8 1AG,52.301165,-0.692628,09:00,15:30,09:00,15:30,09:00,15:30,09:00,15:30,09:00,15:30,09:00,13:00,,
Lloyds Bank,77272000,Physical,Redditch,Redditch,B98 8BZ,52.307082,-1.939669,09:00,17:00,09:00,17:00,09:00,17:00,09:00,17:00,09:00,17:00,09:00,13:00,,
Lloyds Bank,77721900,Physical,St Ives,St Ives,PE27 5AE,52.323798,-0.073667,09:00,15:00,09:00,15:00,09:00,15:00,09:00,15:00,09:00,15:00,,,,
Lloyds Bank,77720900,Physical,Huntingdon,Huntingdon,PE29 3DU,52.331282,-0.185288,09:00,15:30,09:00,15:30,09:00,15:30,09:00,15:30,09:00,15:30,09:00,13:00,,
Lloyds Bank,77270500,Physical,Bromsgrove,Bromsgrove,B61 8EZ,52.335653,-2.05969,09:00,15:30,09:00,15:30,09:00,15:30,09:00,15:30,09:00,15:30,,,,
Lloyds Bank,77071400,Physical,Kenilworth,Kenilworth,CV8 1EE,52.342985,-1.579345,09:00,15:00,09:00,15:00,09:00,15:00,09:00,15:00,09:00,15:00,,,,
Lloyds Bank,30659300,Physical,Ludlow,Ludlow,SY8 1NQ,52.366932,-2.718433,09:30,16:30,09:30,16:30,09:30,16:30,09:30,16:30,09:30,16:30,,,,
Lloyds Bank,30971700,Physical,Rugby,Rugby,CV21 3PL,52.373074,-1.260782,09:00,17:00,09:00,17:00,09:00,17:00,09:00,17:00,09:00,17:00,09:00,13:00,,
Lloyds Bank,30947000,Physical,Kidderminster,Kidderminster,DY10 1DE,52.387656,-2.248666,09:00,16:00,09:00,16:00,09:00,16:00,09:00,16:00,09:00,16:00,09:00,13:00,,
Lloyds Bank,30919600,Physical,Coventry,Coventry,CV3 5HB,52.394492,-1.506272,09:00,17:00,09:00,17:00,09:00,17:00,09:00,17:00,09:00,17:00,,,,
Lloyds Bank,77210500,Physical,Kettering,Kettering,NN16 0AH,52.39818,-0.727705,09:00,15:30,09:00,15:30,09:00,15:30,09:00,15:30,09:00,15:30,09:00,13:00,,
Lloyds Bank,30647900,Physical,Ely,Ely,CB7 4EN,52.3996,0.26227,09:00,15:30,09:00,15:30,09:00,15:30,09:00,15:30,09:00,15:30,09:00,13:00,,
Lloyds Bank,77853200,Physical,Maypole,Maypole,B14 5HS,52.407311,-1.887615,09:00,15:30,09:00,15:30,09:00,15:30,09:00,15:30,09:00,15:30,,,,
Lloyds Bank,30923300,Physical,Coventry High St,Coventry,CV1 5RE,52.407336,-1.509908,09:00,17:00,09:00,17:00,09:00,17:00,09:00,17:00,09:00,17:00,09:00,15:00,,
Lloyds Bank,77855200,Physical,Shirley (West Midlands),Shirley,B90 3AE,52.410346,-1.826645,09:00,17:00,09:00,17:00,09:00,17:00,09:00,17:00,09:00,17:00,09:00,13:00,,
Lloyds Bank,77663900,Physical,Thetford,Thetford,IP24 2AX,52.413845,0.747977,09:00,15:00,09:00,15:00,09:00,15:00,09:00,15:00,09:00,15:00,09:00,13:00,,
Lloyds Bank,30977800,Physical,Solihull,Solihull,B91 3AN,52.414712,-1.778274,09:00,17:00,09:00,17:00,09:00,17:00,09:00,17:00,09:00,17:00,09:00,13:00,,
Lloyds Bank,30961200,Physical,Northfield,Northfield,B31 2NP,52.414739,-1.970859,09:00,17:00,09:00,17:00,09:00,17:00,09:00,17:00,09:00,17:00,09:00,13:00,,
Lloyds Bank,30933300,Physical,Coventry Foleshill Road,Coventry,CV6 5JN,52.429095,-1.499265,09:00,15:30,09:00,15:30,09:00,15:30,09:00,15:30,09:00,15:30,,,,
Lloyds Bank,77852500,Physical,Kings Heath,Kings Heath,B14 7PU,52.431592,-1.893339,09:00,17:00,09:00,17:00,09:00,17:00,09:00,17:00,09:00,17:00,09:00,13:00,,
Lloyds Bank,77850200,Physical,Acocks Green,Acocks Green,B27 6BJ,52.446604,-1.822133,09:00,15:30,09:00,15:30,09:00,15:30,09:00,15:30,09:00,15:30,09:00,13:00,,
Lloyds Bank,30982100,Physical,Stourbridge,Stourbridge,DY8 1DS,52.456666,-2.146248,09:00,15:30,09:00,15:30,09:00,15:30,09:00,15:30,09:00,15:30,09:00,13:00,,
Lloyds Bank,77662000,Physical,Beccles,Beccles,NR34 9HH,52.457146,1.563647,09:00,15:00,09:00,15:00,09:00,15:00,09:00,15:00,09:00,15:00,,,,
Lloyds Bank,77852100,Physical,Harborne,Harborne,B17 9NP,52.459292,-1.948366,09:00,15:30,09:00,15:30,09:00,15:30,09:00,15:30,09:00,15:30,,,,
Lloyds Bank,77857000,Physical,Yardley,Yardley,B25 8UZ,52.466255,-1.810034,09:00,17:00,09:00,17:00,09:00,17:00,09:00,17:00,09:00,17:00,09:00,13:00,,
Lloyds Bank,30845400,Physical,Lowestoft,Lowestoft,NR32 1BL,52.475009,1.751307,09:00,15:30,09:00,15:30,09:00,15:30,09:00,15:30,09:00,15:30,09:00,13:00,,
Lloyds Bank,77851000,Physical,Bordesley Green,None,B9 4SU,52.477066,-1.855812,09:00,16:00,09:00,16:00,09:00,16:00,09:00,16:00,09:00,16:00,,,,
Lloyds Bank,77151700,Physical,Market Harborough,Market Harborough,LE16 7PA,52.47822,-0.921156,09:00,15:00,09:00,15:00,09:00,15:00,09:00,15:00,09:00,15:00,09:00,13:00,,
Lloyds Bank,30654900,Physical,Birmingham New Street,None,B2 4LP,52.479198,-1.89794,09:00,17:00,09:00,17:00,09:00,17:00,09:00,17:00,09:00,17:00,09:00,15:00,,
Lloyds Bank,77857600,Physical,Chelmsley Wood,Chelmsley Wood,B37 5TS,52.480306,-1.739632,09:00,16:00,09:00,16:00,09:00,16:00,09:00,16:00,09:00,16:00,09:00,13:00,,
Lloyds Bank,77852700,Physical,Kitts Green,Kitts Green,B33 9SH,52.482581,-1.778688,09:00,15:00,09:00,15:00,09:00,15:00,09:00,15:00,09:00,15:00,,,,
Lloyds Bank,77210400,Physical,Corby,Corby,NN17 1PB,52.487724,-0.700702,09:00,17:00,09:00,17:00,09:00,17:00,09:00,17:00,09:00,17:00,,,,
Lloyds Bank,77856500,Physical,Ward End,None,B8 2DP,52.494188,-1.81838,09:00,17:00,09:00,17:00,09:00,17:00,09:00,17:00,09:00,17:00,09:00,13:00,,
Lloyds Bank,30145100,Physical,Kingswinford,Kingswinford,DY6 8AE,52.49728,-2.167574,09:00,15:30,09:00,15:30,09:00,15:30,09:00,15:30,09:00,15:30,,,,
Lloyds Bank,77855000,Physical,Castle Bromwich,Castle Bromwich,B36 0JG,52.501616,-1.762559,09:00,15:30,09:00,15:30,09:00,15:30,09:00,15:30,09:00,15:30,,,,
Lloyds Bank,77852000,Physical,Handsworth,Handsworth,B21 9LN,52.503235,-1.932843,09:00,17:00,09:00,17:00,09:00,17:00,09:00,17:00,09:00,17:00,09:00,13:00,,
Lloyds Bank,77330500,Physical,Dudley,Dudley,DY1 1PY,52.509186,-2.084787,09:00,17:00,09:00,17:00,09:00,17:00,09:00,17:00,09:00,17:00,09:00,13:00,,
Lloyds Bank,30993600,Physical,West Bromwich,West Bromwich,B70 8NA,52.519443,-1.994977,09:00,15:30,09:00,15:30,09:00,15:30,09:00,15:30,09:00,15:30,09:00,13:00,,
Lloyds Bank,30847900,Physical,Nuneaton,Nuneaton,CV11 5TD,52.522172,-1.468211,09:00,17:00,09:00,17:00,09:00,17:00,09:00,17:00,09:00,17:00,09:00,13:00,,
Lloyds Bank,77851600,Physical,Erdington,Erdington,B23 6SZ,52.522974,-1.841107,09:00,17:00,09:00,17:00,09:00,17:00,09:00,17:00,09:00,17:00,09:00,15:00,,
Lloyds Bank,77270400,Physical,Bridgnorth,Bridgnorth,WV16 4DN,52.536552,-2.420516,09:00,15:30,09:00,15:30,09:00,15:30,09:00,15:30,09:00,15:30,,,,
Lloyds Bank,77151500,Physical,Hinckley,Hinckley,LE10 1NL,52.541998,-1.373168,09:00,15:30,09:00,15:30,09:00,15:30,09:00,15:30,09:00,15:30,,,,
Lloyds Bank,77721400,Physical,March,March,PE15 9JE,52.54943,0.08834,09:00,15:00,09:00,15:00,09:00,15:00,09:00,15:00,09:00,15:00,,,,
Lloyds Bank,77852600,Physical,Kingstanding,Kingstanding,B44 9TB,52.551212,-1.884331,09:00,15:30,09:00,15:30,09:00,15:30,09:00,15:30,09:00,15:30,,,,
Lloyds Bank,77310300,Physical,Wednesbury,Wednesbury,WS10 9BY,52.553367,-2.018403,09:00,15:30,09:00,15:30,09:00,15:30,09:00,15:30,,,,,,
Lloyds Bank,77856300,Physical,Sutton Coldfield,Sutton Coldfield,B72 1QA,52.559421,-1.825807,09:00,17:00,09:00,17:00,09:00,17:00,09:00,17:00,09:00,17:00,09:00,13:00,,
Lloyds Bank,77330200,Physical,Bilston,Bilston,WV14 0BJ,52.565414,-2.078118,09:00,17:00,09:00,17:00,09:00,17:00,09:00,17:00,09:00,17:00,09:00,13:00,,
Lloyds Bank,77661400,Physical,Wymondham,Wymondham,NR18 0AG,52.570458,1.113386,09:00,15:00,09:00,15:00,,,09:00,15:00,09:00,15:00,,,,
Lloyds Bank,77721600,Physical,Peterborough,Peterborough,PE1 1YH,52.574485,-0.243336,09:00,17:00,09:00,17:00,09:00,17:00,09:00,17:00,09:00,17:00,09:00,15:00,,
Lloyds Bank,77660800,Physical,Gorleston-on-Sea,Great Yarmouth,NR31 6QU,52.577867,1.726985,09:00,15:30,09:00,15:30,09:00,15:30,09:00,15:30,09:00,15:30,,,,
Lloyds Bank,30996300,Physical,Willenhall,Willenhall,WV13 2AE,52.583477,-2.054992,09:00,16:00,09:00,16:00,09:00,16:00,09:00,16:00,09:00,16:00,09:00,13:00,,
Lloyds Bank,30990600,Physical,Walsall The Bridge,Walsall,WS1 1LG,52.584411,-1.982333,09:00,17:00,09:00,17:00,09:00,17:00,09:00,17:00,09:00,17:00,09:00,15:00,,
Lloyds Bank,30998300,Physical,Wolverhampton Queen Square,Wolverhampton,WV1 1RF,52.586109,-2.127495,09:00,17:00,09:00,17:00,09:00,17:00,09:00,17:00,09:00,17:00,09:00,15:00,,
Lloyds Bank,77152800,Physical,Wigston Magna,Wigston Magna,LE18 1NR,52.587688,-1.105161,09:00,15:30,09:00,15:30,09:00,15:30,09:00,15:30,09:00,15:30,09:00,13:00,,
Lloyds Bank,30185600,Physical,Wolverhampton Tettenhall,Wolverhampton,WV6 8QT,52.597538,-2.168342,09:00,15:30,09:00,15:30,09:00,15:30,09:00,15:30,09:00,15:30,,,,
Lloyds Bank,77330900,Physical,Wolverhampton Wednesfield,Wolverhampton,WV11 1SS,52.600027,-2.083384,09:00,17:00,09:00,17:00,09:00,17:00,09:00,17:00,09:00,17:00,09:00,13:00,,
Lloyds Bank,30999700,Physical,Great Yarmouth,Great Yarmouth,NR30 2BA,52.607512,1.72713,09:00,17:00,09:00,17:00,09:00,17:00,09:00,17:00,09:00,17:00,09:00,13:00,,
Lloyds Bank,77310800,Physical,Walsall Bloxwich,Walsall,WS3 3JG,52.616077,-2.004624,09:00,15:30,09:00,15:30,09:00,15:30,09:00,15:30,09:00,15:30,,,,
Lloyds Bank,77330800,Physical,Wolverhampton Three Tuns,Wolverhampton,WV10 6BA,52.620496,-2.129321,09:00,15:30,09:00,15:30,09:00,15:30,09:00,15:30,09:00,15:30,,,,
Lloyds Bank,30961700,Physical,Norwich Gentlemans Walk,Norwich,NR2 1LZ,52.628651,1.293571,09:00,17:00,09:00,17:00,09:00,17:00,09:00,17:00,09:00,17:00,09:00,15:00,,
Lloyds Bank,77311100,Physical,Tamworth,Tamworth,B79 7LW,52.632797,-1.694585,09:00,15:30,09:00,15:30,09:00,15:30,09:00,15:30,09:00,15:30,09:00,13:00,,
Lloyds Bank,30949700,Physical,Leicester High Street,Leicester,LE1 4FP,52.635995,-1.134342,09:00,17:00,09:00,17:00,09:00,17:00,09:00,17:00,09:00,17:00,09:00,13:00,,
Lloyds Bank,77722700,Physical,Stamford,Stamford,PE9 2AT,52.651917,-0.479198,09:00,15:00,09:00,15:00,09:00,15:00,09:00,15:00,09:00,15:00,09:00,13:00,,
Lloyds Bank,30649800,Physical,Norwich Aylsham Road,Norwich,NR3 2RU,52.655209,1.278651,09:00,15:30,09:00,15:30,09:00,15:30,09:00,15:30,09:00,15:30,,,,
Lloyds Bank,77150800,Physical,Leicester Melton Road,Leicester,LE4 5EE,52.656961,-1.117253,09:00,15:30,09:00,15:30,09:00,15:30,09:00,15:30,09:00,15:30,,,,
Lloyds Bank,30997700,Physical,Wisbech,Wisbech,PE13 1JT,52.665232,0.157034,09:00,15:00,09:00,15:00,09:00,15:00,09:00,15:00,09:00,15:00,,,,
Lloyds Bank,30185500,Physical,Telford,Telford,TF3 4AE,52.676762,-2.446105,09:00,17:00,09:00,17:00,09:00,17:00,09:00,17:00,09:00,17:00,09:00,15:00,,
Lloyds Bank,30928800,Physical,Dereham,Dereham,NR19 2AT,52.681273,0.94132,09:00,15:30,09:00,15:30,09:00,15:30,09:00,15:30,09:00,15:30,09:00,13:00,,
Lloyds Bank,77310600,Physical,Lichfield,Lichfield,WS13 6JS,52.684133,-1.827216,09:00,15:30,09:00,15:30,09:00,15:30,09:00,15:30,09:00,15:30,09:00,13:00,,
Lloyds Bank,30644400,Physical,Cannock,Cannock,WS11 1BD,52.688153,-2.029577,09:00,16:00,09:00,16:00,09:00,16:00,09:00,16:00,09:00,16:00,09:00,13:00,,
Lloyds Bank,30976200,Physical,Shrewsbury,Shrewsbury,SY1 1DG,52.708259,-2.754456,09:00,17:00,09:00,17:00,09:00,17:00,09:00,17:00,09:00,17:00,09:00,15:00,,
Lloyds Bank,77151400,Physical,Coalville,Coalville,LE67 3QH,52.72404,-1.374415,09:00,15:30,09:00,15:30,09:00,15:30,09:00,15:30,,,09:00,13:00,,
Lloyds Bank,77660600,Physical,Kings Lynn,Kings Lynn,PE30 1BP,52.753216,0.396012,09:00,15:30,09:00,15:30,09:00,15:30,09:00,15:30,09:00,15:30,09:00,13:00,,
Lloyds Bank,77311000,Physical,Rugeley,Rugeley,WS15 2DP,52.759068,-1.935751,09:00,15:00,09:00,15:00,09:00,15:00,09:00,15:00,09:00,15:00,,,,
Lloyds Bank,77151800,Physical,Melton Mowbray,Melton Mowbray,LE13 1XR,52.764557,-0.885315,09:00,15:00,09:00,15:00,09:00,15:00,09:00,15:00,09:00,15:00,09:00,13:00,,
Lloyds Bank,30658500,Physical,Loughborough,Loughborough,LE11 2QG,52.771901,-1.205981,09:00,17:00,09:00,17:00,09:00,17:00,09:00,17:00,09:00,17:00,09:00,13:00,,
Lloyds Bank,77081200,Physical,Swadlincote,Swadlincote,DE11 8JA,52.773071,-1.554126,09:00,16:00,09:00,16:00,09:00,16:00,09:00,16:00,09:00,16:00,09:00,13:00,,
Lloyds Bank,30979500,Physical,Spalding,Spalding,PE11 1SF,52.787269,-0.151759,09:00,16:00,09:00,16:00,09:00,16:00,09:00,16:00,09:00,16:00,09:00,13:00,,
Lloyds Bank,30641800,Physical,Burton-on-Trent,Burton-on-Trent,DE14 1JA,52.802208,-1.630574,09:00,15:30,09:00,15:30,09:00,15:30,09:00,15:30,09:00,15:30,09:00,13:00,,
Lloyds Bank,30842600,Physical,Stafford,Stafford,ST16 2JL,52.807556,-2.116885,09:00,16:00,09:00,16:00,09:00,16:00,09:00,16:00,09:00,16:00,09:00,13:00,,
Lloyds Bank,77660700,Physical,North Walsham,North Walsham,NR28 9BP,52.821264,1.386384,09:00,15:00,09:00,15:00,09:00,15:00,09:00,15:00,09:00,15:00,,,,
Lloyds Bank,77662400,Physical,Fakenham,Fakenham,NR21 9AH,52.830284,0.84987,09:00,15:00,09:00,15:00,09:00,15:00,09:00,15:00,09:00,15:00,,,,
Lloyds Bank,77080700,Physical,Allenton,Derby,DE24 9AA,52.890936,-1.452722,09:00,15:30,09:00,15:30,09:00,15:30,09:00,15:30,09:00,15:30,,,,
Lloyds Bank,77222600,Physical,Long Eaton,Long Eaton,NG10 1JJ,52.897287,-1.271586,09:00,15:30,,,09:00,15:30,09:00,15:30,09:00,15:30,,,,
Lloyds Bank,77272400,Physical,Uttoxeter,Uttoxeter,ST14 8HD,52.898196,-1.865428,09:00,15:00,09:00,15:00,09:00,15:00,09:00,15:00,09:00,15:00,,,,
Lloyds Bank,77581100,Physical,Stone,Stone,ST15 8AG,52.903345,-2.148032,09:00,15:00,09:00,15:00,09:00,15:00,09:00,15:00,09:00,15:00,,,,
Lloyds Bank,30153900,Physical,Market Drayton,Market Drayton,TF9 1PN,52.905351,-2.485972,09:00,15:00,09:00,15:00,09:00,15:00,09:00,15:00,09:00,15:00,,,,
Lloyds Bank,77712800,Physical,Grantham,Grantham,NG31 6QF,52.910913,-0.641573,09:00,15:30,09:00,15:30,09:00,15:30,09:00,15:30,09:00,15:30,09:00,13:00,,
Lloyds Bank,30642400,Physical,Derby,Derby,DE1 2AA,52.92077,-1.475864,09:00,17:00,09:00,17:00,09:00,17:00,09:00,17:00,09:00,17:00,09:00,13:00,,
Lloyds Bank,77223700,Physical,Nottingham Parliament Street,None,NG1 3DA,52.95499,-1.147096,09:00,17:00,09:00,17:00,09:00,17:00,09:00,17:00,09:00,17:00,09:00,15:00,,
Lloyds Bank,77080800,Physical,Ilkeston,Ilkeston,DE7 8GS,52.971641,-1.308165,09:00,15:30,09:00,15:30,,,09:00,15:30,09:00,15:30,09:00,13:00,,
Lloyds Bank,30634700,Physical,Boston,Boston,PE21 6NQ,52.978206,-0.024689,09:00,16:00,09:00,16:00,09:00,16:00,09:00,16:00,09:00,16:00,09:00,13:00,,
Lloyds Bank,77580600,Physical,Longton (Staffordshire),Stoke-on-Trent,ST3 2RP,52.988987,-2.136817,09:00,15:30,,,09:00,15:30,09:00,15:30,09:00,15:30,,,,
Lloyds Bank,30977000,Physical,Sleaford,Sleaford,NG34 7BL,52.999714,-0.410299,09:00,15:00,09:00,15:00,09:00,15:00,09:00,15:00,09:00,15:00,,,,
Lloyds Bank,77220900,Physical,Bulwell,Bulwell,NG6 8EZ,53.002097,-1.196444,09:00,17:00,09:00,17:00,,,09:00,17:00,09:00,17:00,09:00,13:00,,
Lloyds Bank,77221700,Physical,Arnold,Arnold,NG5 7EJ,53.003502,-1.127371,09:00,15:30,09:00,15:30,09:00,15:30,,,09:00,15:30,,,,
Lloyds Bank,77580200,Physical,Stoke-on-Trent,Stoke-on-Trent,ST4 1NG,53.003646,-2.186602,09:00,15:30,09:00,15:30,09:00,15:30,09:00,15:30,09:00,15:30,,,,
Lloyds Bank,30959100,Physical,Newcastle-under-Lyme,Newcastle-under-Lyme,ST5 1QY,53.011084,-2.22848,09:00,15:30,09:00,15:30,09:00,15:30,09:00,15:30,09:00,15:30,09:00,15:00,,
Lloyds Bank,30902500,Physical,Ashbourne,Ashbourne,DE6 1DY,53.01605,-1.732397,09:00,15:30,09:00,15:30,09:00,15:30,09:00,15:30,09:00,15:30,,,,
Lloyds Bank,30735600,Physical,Malpas,Malpas,SY14 8NX,53.019891,-2.766145,,,09:00,15:00,,,09:00,15:00,,,,,,
Lloyds Bank,30938300,Physical,Hanley,Stoke-on-Trent,ST1 1LE,53.026172,-2.175203,09:00,16:00,09:00,16:00,09:00,16:00,09:00,16:00,09:00,16:00,09:00,15:00,,
Lloyds Bank,77222300,Physical,Hucknall,Hucknall,NG15 7HQ,53.037196,-1.201155,09:00,15:00,,,09:00,15:00,09:00,15:00,,,,,,
Lloyds Bank,30999500,Physical,Wrexham,Wrexham,LL11 1SE,53.046784,-2.995856,09:00,16:00,09:00,16:00,09:00,16:00,09:00,16:00,09:00,16:00,09:00,13:00,,
Lloyds Bank,77580400,Physical,Tunstall,Stoke-on-Trent,ST6 5DL,53.058168,-2.211346,09:00,15:30,09:00,15:30,09:00,15:30,09:00,15:30,09:00,15:30,,,,
Lloyds Bank,77714500,Physical,Newark,Newark,NG24 1AW,53.076007,-0.810403,09:00,15:00,09:00,15:00,09:00,15:00,09:00,15:00,09:00,15:00,09:00,13:00,,
Lloyds Bank,77081400,Physical,Alfreton,Alfreton,DE55 7DR,53.097714,-1.389416,09:00,15:00,09:00,15:00,09:00,15:00,09:00,15:00,09:00,15:00,09:00,13:00,,
Lloyds Bank,77481700,Physical,Crewe,Crewe,CW1 2JQ,53.099179,-2.4418,09:00,17:00,09:00,17:00,09:00,17:00,09:00,17:00,09:00,17:00,09:00,13:00,,
Lloyds Bank,77223300,Physical,Sutton-in-Ashfield,Sutton-in-Ashfield,NG17 1BA,53.125728,-1.261479,09:00,17:00,09:00,17:00,09:00,17:00,09:00,17:00,09:00,17:00,09:00,13:00,,
Lloyds Bank,77081500,Physical,Matlock,Matlock,DE4 3AR,53.138385,-1.554657,09:00,15:00,09:00,15:00,09:00,15:00,09:00,15:00,09:00,15:00,,,,
Lloyds Bank,30976700,Physical,Skegness,Skegness,PE25 3LP,53.143158,0.339199,09:00,15:30,09:00,15:30,09:00,15:30,09:00,15:30,09:00,15:30,09:00,13:00,,
Lloyds Bank,30954300,Physical,Mansfield,Mansfield,NG18 1AF,53.144397,-1.195607,09:00,17:00,09:00,17:00,09:00,17:00,09:00,17:00,09:00,17:00,09:00,15:00,,
Lloyds Bank,77480500,Physical,Mold,Mold,CH7 1AS,53.166752,-3.141629,09:00,15:00,09:00,15:00,09:00,15:00,09:00,15:00,09:00,15:00,09:00,13:00,,
Lloyds Bank,30919200,Physical,Chester,Chester,CH1 1XP,53.190864,-2.888335,09:00,17:00,09:00,17:00,09:00,17:00,09:00,17:00,09:00,17:00,09:00,15:00,,
Lloyds Bank,77720800,Physical,Horncastle,Horncastle,LN9 5BL,53.208758,-0.115694,09:00,15:00,09:00,15:00,09:00,15:00,09:00,15:00,09:00,15:00,,,,
Lloyds Bank,30904300,Physical,Bangor,Bangor,LL57 1RT,53.227238,-4.124596,09:00,15:30,09:00,15:30,09:00,15:30,09:00,15:30,,,09:00,13:00,,
Lloyds Bank,30677600,Physical,Lincoln,Lincoln,LN5 7AP,53.227955,-0.541141,09:00,17:00,09:00,17:00,09:00,17:00,09:00,17:00,09:00,17:00,09:00,13:00,,
Lloyds Bank,77741700,Physical,Chesterfield,Chesterfield,S40 1LR,53.236447,-1.429833,09:00,15:30,09:00,15:30,09:00,15:30,09:00,15:30,09:00,15:30,09:00,13:00,,
Lloyds Bank,30149600,Physical,Llangefni,Llangefni,LL77 7NB,53.256014,-4.312602,,,09:00,14:30,09:00,14:30,,,09:00,14:30,,,,
Lloyds Bank,77670800,Physical,Macclesfield,Macclesfield,SK11 6NH,53.258452,-2.125527,09:00,15:00,09:00,15:00,09:00,15:00,09:00,15:00,09:00,15:00,09:00,13:00,,
Lloyds Bank,77480900,Physical,Northwich,Northwich,CW9 5DD,53.261406,-2.515056,09:00,15:30,09:00,15:30,09:00,15:30,09:00,15:30,09:00,15:30,09:00,13:00,,
Lloyds Bank,77482300,Physical,Ellesmere Port,Ellesmere Port,CH65 0AL,53.278982,-2.90017,09:00,15:30,09:00,15:30,09:00,15:30,09:00,15:30,09:00,15:30,,,,
Lloyds Bank,77717500,Physical,Worksop,Worksop,S80 1DH,53.302956,-1.12453,09:00,15:00,09:00,15:00,09:00,15:00,09:00,15:00,09:00,15:00,09:00,13:00,,
Lloyds Bank,77481500,Physical,Rhyl,Rhyl,LL18 1RY,53.320194,-3.491897,09:00,15:30,09:00,15:30,,,09:00,15:30,09:00,15:30,09:00,13:00,,
Lloyds Bank,30656400,Physical,Llandudno,Llandudno,LL30 2RU,53.323177,-3.827729,09:00,15:30,,,09:00,15:00,09:00,15:00,09:00,15:30,,,,
Lloyds Bank,30733400,Physical,Heswall,Heswall,CH60 0AN,53.328292,-3.098877,09:00,15:00,09:00,15:00,09:00,15:00,09:00,15:00,09:00,15:00,,,,
Lloyds Bank,77741100,Physical,Sheffield Woodhouse,Sheffield,S13 7JQ,53.358793,-1.370683,09:00,15:00,09:00,15:00,09:00,15:00,09:00,15:00,09:00,15:00,,,,
Lloyds Bank,30658600,Physical,Louth,Louth,LN11 9JH,53.365919,-0.005139,09:00,15:30,09:00,15:30,09:00,15:30,09:00,15:30,09:00,15:30,09:00,13:00,,
Lloyds Bank,77511200,Physical,Widnes,Widnes,WA8 6JW,53.368823,-2.726289,09:00,15:30,09:00,15:30,09:00,15:30,09:00,15:30,09:00,15:30,09:00,13:00,,
Lloyds Bank,77740100,Physical,Sheffield High Street,Sheffield,S1 2GA,53.382753,-1.468463,09:00,17:00,09:00,17:00,09:00,17:00,09:00,17:00,09:00,17:00,09:00,15:00,,
Lloyds Bank,77191400,Physical,Altrincham,Altrincham,WA14 1BS,53.386187,-2.349983,09:00,15:30,09:00,15:30,09:00,15:30,09:00,15:30,09:00,15:30,,,,
Lloyds Bank,77171300,Physical,Birkenhead,Birkenhead,CH41 2XX,53.38927,-3.02256,09:00,15:30,09:00,15:30,09:00,15:30,09:00,15:30,09:00,15:30,09:00,13:00,,
Lloyds Bank,30991400,Physical,Warrington,Warrington,WA1 1TP,53.389282,-2.593506,09:00,17:00,09:00,17:00,09:00,17:00,09:00,17:00,09:00,17:00,09:00,15:00,,
Lloyds Bank,77741300,Physical,Sheffield Hillsborough,Sheffield,S6 2BQ,53.40333,-1.500293,09:00,15:30,09:00,15:30,09:00,15:30,09:00,15:30,09:00,15:30,09:00,13:00,,
Lloyds Bank,77175000,Physical,Liverpool Church Street,None,L1 3HD,53.404639,-2.981876,09:00,17:00,09:00,17:00,09:00,17:00,09:00,17:00,09:00,17:00,09:00,15:00,,
Lloyds Bank,77670200,Physical,Stockport,Stockport,SK1 1PL,53.411264,-2.160561,09:00,17:00,09:00,17:00,09:00,17:00,09:00,17:00,09:00,17:00,09:00,15:00,,
Lloyds Bank,77173700,Physical,Huyton,Huyton,L36 9UR,53.412388,-2.838316,09:00,15:30,09:00,15:30,09:00,15:30,09:00,15:30,09:00,15:30,09:00,13:00,,
Lloyds Bank,77741400,Physical,Sheffield Firth Park,Sheffield,S5 6QG,53.418466,-1.450028,09:00,15:30,09:00,15:30,09:00,15:30,09:00,15:30,09:00,15:30,,,,
Lloyds Bank,77172400,Physical,Liscard,Wallasey,CH44 5TL,53.42003,-3.045095,09:00,15:30,09:00,15:30,09:00,15:30,09:00,15:30,,,,,,
Lloyds Bank,77170300,Physical,Liverpool Breck Road,None,L5 6PX,53.422723,-2.959042,09:00,15:30,09:00,15:30,09:00,15:30,09:00,15:30,09:00,15:30,,,,
Lloyds Bank,77192300,Physical,Sale,Sale,M33 7XL,53.425165,-2.32148,09:00,16:00,09:00,16:00,09:00,16:00,09:00,16:00,09:00,16:00,09:00,13:00,,
Lloyds Bank,30625500,Physical,Rotherham,Rotherham,S60 2LU,53.43025,-1.35432,09:00,15:30,09:00,15:30,09:00,15:30,09:00,15:30,09:00,15:30,09:00,13:00,,
Lloyds Bank,77171100,Physical,Liverpool Broadway,Norris Green,L11 1DA,53.441509,-2.930259,09:00,16:00,09:00,16:00,09:00,16:00,09:00,16:00,09:00,16:00,09:00,13:00,,
Lloyds Bank,77010700,Physical,Glossop,Glossop,SK13 8DA,53.443172,-1.948731,09:00,15:00,09:00,15:00,09:00,15:00,09:00,15:00,09:00,15:00,,,,
Lloyds Bank,77322000,Physical,St Helens,St Helens,WA10 1QZ,53.452942,-2.736159,09:00,15:30,09:00,15:30,09:00,15:30,09:00,15:30,09:00,15:30,09:00,13:00,,
Lloyds Bank,77173000,Physical,Kirkby,Kirkby,L32 8SE,53.480736,-2.887207,09:00,15:00,09:00,15:00,09:00,15:00,09:00,15:00,09:00,15:00,,,,
Lloyds Bank,30954200,Physical,Manchester Market Street,None,M1 1PW,53.482693,-2.242562,09:00,18:00,09:00,18:00,09:00,18:00,09:00,18:00,09:00,18:00,09:00,16:00,11:00,16:00
Lloyds Bank,77010100,Physical,Ashton-under-Lyne,Ashton-under-Lyne,OL6 7RU,53.487829,-2.094287,09:00,17:00,09:00,17:00,09:00,17:00,09:00,17:00,09:00,17:00,09:00,13:00,,
Lloyds Bank,77191200,Physical,Salford,Salford,M6 5JA,53.488906,-2.286721,09:00,15:30,09:00,15:30,09:00,15:30,09:00,15:30,09:00,15:30,09:00,13:00,,
Lloyds Bank,77590100,Physical,Leigh,Leigh,WN7 4PG,53.496017,-2.517971,09:00,16:00,09:00,16:00,09:00,16:00,09:00,16:00,09:00,16:00,09:00,13:00,,
Lloyds Bank,77191600,Physical,Newton Heath,Newton Heath,M40 2JF,53.501088,-2.181028,09:00,15:00,09:00,15:00,09:00,15:00,09:00,15:00,09:00,15:00,,,,
Lloyds Bank,77193800,Physical,Manchester Moston,Moston,M40 9WB,53.513817,-2.198676,09:00,16:00,09:00,16:00,09:00,16:00,09:00,16:00,09:00,16:00,,,,
Lloyds Bank,30926800,Physical,Doncaster High Street,Doncaster,DN1 1BH,53.523423,-1.135396,09:00,15:30,09:00,15:30,09:00,15:30,09:00,15:30,09:00,15:30,09:00,13:00,,
Lloyds Bank,77021200,Physical,Walkden,Worsley,M28 3AY,53.525571,-2.399382,09:00,15:30,09:00,15:30,09:00,15:30,09:00,15:30,09:00,15:30,,,,
Lloyds Bank,77010500,Physical,Oldham,Oldham,OL1 1JG,53.541795,-2.115308,09:00,17:00,09:00,17:00,09:00,17:00,09:00,17:00,09:00,17:00,09:00,15:00,,
Lloyds Bank,77320100,Physical,Market Street Wigan,Wigan,WN1 1JN,53.546262,-2.632453,09:00,16:00,09:00,16:00,09:00,16:00,09:00,16:00,09:00,16:00,09:00,13:00,,
Lloyds Bank,77020900,Physical,Bolton Farnworth,Bolton,BL4 8EX,53.547746,-2.392274,09:00,15:30,09:00,15:30,09:00,15:30,09:00,15:30,09:00,15:30,,,,
Lloyds Bank,77710300,Physical,Barnsley,Barnsley,S70 1RU,53.551409,-1.47896,09:00,15:00,09:00,15:00,09:00,15:00,09:00,15:00,09:00,15:00,09:00,13:00,,
Lloyds Bank,77160300,Physical,Brigg,Brigg,DN20 8JG,53.552054,-0.49108,09:00,15:00,09:00,15:00,09:00,15:00,09:00,15:00,09:00,15:00,,,,
Lloyds Bank,77321900,Physical,Formby,Formby,L37 4DR,53.556871,-3.060086,09:00,15:00,09:00,15:00,09:00,15:00,09:00,15:00,09:00,15:00,,,,
Lloyds Bank,77122000,Physical,Cleethorpes,Cleethorpes,DN35 8HL,53.559142,-0.031658,09:00,15:00,09:00,15:00,09:00,15:00,09:00,15:00,09:00,15:00,,,,
Lloyds Bank,77121700,Physical,Grimsby,Grimsby,DN31 1BL,53.565305,-0.085366,09:00,17:00,09:00,17:00,09:00,17:00,09:00,17:00,09:00,17:00,09:00,15:00,,
Lloyds Bank,77020100,Physical,Bolton,Bolton,BL1 1DB,53.579026,-2.428923,09:00,17:00,09:00,17:00,09:00,17:00,09:00,17:00,09:00,17:00,09:00,15:00,,
Lloyds Bank,30974400,Physical,Scunthorpe,Scunthorpe,DN15 6HG,53.591726,-0.648346,09:00,17:00,09:00,17:00,09:00,17:00,09:00,17:00,09:00,17:00,09:00,15:00,,
Lloyds Bank,77040100,Physical,Bury,Bury,BL9 0JP,53.59427,-2.295305,09:00,17:00,09:00,17:00,09:00,17:00,09:00,17:00,09:00,17:00,09:00,15:00,,
Lloyds Bank,77716500,Physical,South Elmsall,Pontefract,WF9 2AA,53.59441,-1.295264,09:00,15:00,09:00,15:00,09:00,15:00,09:00,15:00,09:00,15:00,,,,
Lloyds Bank,30846200,Physical,Rochdale,Rochdale,OL16 1JP,53.618292,-2.157076,09:00,15:30,09:00,15:30,09:00,15:30,09:00,15:30,09:00,15:30,,,,
Lloyds Bank,30944300,Physical,Huddersfield,Huddersfield,HD1 2DN,53.646809,-1.782817,09:00,17:00,09:00,17:00,09:00,17:00,09:00,17:00,09:00,17:00,09:00,15:00,,
Lloyds Bank,30978800,Physical,Southport,Southport,PR9 0UX,53.648122,-3.003238,09:00,15:30,09:00,15:30,09:00,15:30,09:00,15:30,09:00,15:30,09:00,13:00,,
Lloyds Bank,30990100,Physical,Wakefield,Wakefield,WF1 1JZ,53.68248,-1.498409,09:00,15:30,09:00,15:30,09:00,15:30,09:00,15:30,09:00,15:30,09:00,13:00,,
Lloyds Bank,77110300,Physical,Dewsbury,Dewsbury,WF13 1DF,53.691654,-1.629302,09:00,15:30,09:00,15:30,09:00,15:30,09:00,15:30,09:00,15:30,,,,
Lloyds Bank,30147600,Physical,Leyland,Preston,PR25 2SD,53.694673,-2.694935,09:00,15:00,09:00,15:00,09:00,15:00,09:00,15:00,09:00,15:00,,,,
Lloyds Bank,30654700,Physical,Brighouse,Brighouse,HD6 1RW,53.702369,-1.77943,09:00,15:00,09:00,15:00,09:00,15:00,09:00,15:00,09:00,15:00,,,,
Lloyds Bank,77141500,Physical,Batley,Batley,WF17 5EQ,53.713645,-1.631842,09:00,15:00,09:00,15:00,09:00,15:00,09:00,15:00,09:00,15:00,,,,
Lloyds Bank,30937600,Physical,Halifax,Halifax,HX1 1BB,53.722218,-1.86186,09:00,17:00,09:00,17:00,09:00,17:00,09:00,17:00,09:00,17:00,09:00,15:00,,
Lloyds Bank,77711500,Physical,Castleford,Castleford,WF10 1JE,53.725847,-1.352782,09:00,15:00,09:00,15:00,09:00,15:00,09:00,15:00,09:00,15:00,,,,
Lloyds Bank,77120500,Physical,South Newington,None,HU3 3SD,53.734721,-0.367858,09:00,15:30,09:00,15:30,09:00,15:30,09:00,15:30,09:00,15:30,,,,
Lloyds Bank,77122500,Physical,Hedon,Hedon,HU12 8EU,53.740585,-0.19906,09:00,15:00,09:00,15:00,09:00,15:00,09:00,15:00,09:00,15:00,,,,
Lloyds Bank,30944400,Physical,Hull City Centre,None,HU1 3JX,53.744862,-0.342163,09:00,17:00,09:00,17:00,09:00,17:00,09:00,17:00,09:00,17:00,09:00,15:00,,
Lloyds Bank,30908700,Physical,Blackburn,Blackburn,BB2 1JQ,53.74754,-2.483395,09:00,17:00,09:00,17:00,09:00,17:00,09:00,17:00,09:00,17:00,09:00,15:00,,
Lloyds Bank,77760500,Physical,Accrington,Accrington,BB5 1EP,53.754046,-2.363107,09:00,15:30,09:00,15:30,09:00,15:30,09:00,15:30,09:00,15:30,,,,
Lloyds Bank,30968500,Physical,Preston Fishergate,Preston,PR1 2JB,53.75792,-2.703373,09:00,17:00,09:00,17:00,09:00,17:00,09:00,17:00,09:00,17:00,09:00,15:00,,
Lloyds Bank,77120700,Physical,Newland University,None,HU5 3BG,53.762467,-0.359022,09:00,15:30,09:00,15:30,09:00,15:30,09:00,15:30,09:00,15:30,,,,
Lloyds Bank,77121300,Physical,Hull Ings Road,None,HU8 0NA,53.774803,-0.303233,09:00,15:30,09:00,15:30,09:00,15:30,09:00,15:30,09:00,15:30,,,,
Lloyds Bank,77760400,Physical,Burnley,Burnley,BB11 1HT,53.788789,-2.243067,09:00,16:00,09:00,16:00,09:00,16:00,09:00,16:00,09:00,16:00,09:00,13:00,,
Lloyds Bank,77262400,Physical,Preston Fulwood,Preston,PR2 9XJ,53.790409,-2.713618,09:00,15:00,09:00,15:00,09:00,15:00,09:00,15:00,09:00,15:00,,,,
Lloyds Bank,30635500,Physical,Bradford,Bradford,BD1 1NT,53.794533,-1.752215,09:00,17:00,09:00,17:00,09:00,17:00,09:00,17:00,09:00,17:00,09:00,15:00,,
Lloyds Bank,77140800,Physical,Leeds Armley,Leeds,LS12 3AE,53.796856,-1.591213,09:00,15:00,09:00,15:00,09:00,15:00,09:00,15:00,09:00,15:00,,,,
Lloyds Bank,30989300,Physical,Leeds City Centre,Leeds,LS1 6LH,53.798019,-1.542487,09:00,17:00,09:00,17:00,09:00,17:00,09:00,17:00,09:00,17:00,09:00,15:00,,
Lloyds Bank,30126500,Physical,Leeds Crossgates,Leeds,LS15 8ET,53.806274,-1.450824,09:00,15:00,09:00,15:00,09:00,15:00,09:00,15:00,09:00,15:00,,,,
Lloyds Bank,77141000,Physical,Leeds Harehills,Leeds,LS9 6AP,53.808463,-1.508025,09:00,15:30,09:00,15:30,09:00,15:30,09:00,15:30,09:00,15:30,,,,
Lloyds Bank,30909000,Physical,Blackpool,Blackpool,FY1 1EN,53.817854,-3.053672,09:00,15:30,09:00,15:30,09:00,15:30,09:00,15:30,09:00,15:30,09:00,13:00,,
Lloyds Bank,77760100,Physical,Clitheroe,Clitheroe,BB7 2DD,53.873281,-2.390818,09:00,15:00,09:00,15:00,09:00,15:00,09:00,15:00,09:00,15:00,,,,
Lloyds Bank,77717200,Physical,Wetherby,Wetherby,LS22 6LN,53.928523,-1.386205,09:00,14:30,09:00,14:30,09:00,14:30,09:00,14:30,09:00,14:30,,,,
Lloyds Bank,30636400,Physical,York,York,YO1 9UP,53.958421,-1.079924,09:00,17:00,09:00,17:00,09:00,17:00,09:00,17:00,09:00,17:00,09:00,15:00,,
Lloyds Bank,77713100,Physical,Harrogate,Harrogate,HG1 1PQ,53.99315,-1.541586,09:00,17:00,09:00,17:00,09:00,17:00,09:00,17:00,09:00,17:00,09:00,15:00,,
Lloyds Bank,30128600,Physical,Driffield,Driffield,YO25 6AH,54.005187,-0.439694,09:00,15:00,09:00,15:00,09:00,15:00,09:00,15:00,09:00,15:00,,,,
Lloyds Bank,77261300,Physical,Lancaster,Lancaster,LA1 1JH,54.048626,-2.801983,09:00,15:30,09:00,15:30,09:00,15:30,09:00,15:30,09:00,15:30,,,,
Lloyds Bank,77260400,Physical,Barrow-In-Furness,Barrow-in-Furness,LA14 1JH,54.113261,-3.225219,09:00,15:30,09:00,15:30,09:00,15:30,09:00,15:30,09:00,15:30,09:00,13:00,,
Lloyds Bank,77561400,Physical,Ulverston,Ulverston,LA12 7HR,54.195855,-3.093672,09:00,15:00,09:00,15:00,,,09:00,15:00,09:00,15:00,,,,
Lloyds Bank,30974300,Physical,Scarborough,Scarborough,YO11 2YY,54.282671,-0.398934,09:00,15:30,09:00,15:30,09:00,15:30,09:00,15:30,09:00,15:30,09:00,13:00,,
Lloyds Bank,77561000,Physical,Kendal,Kendal,LA9 4AG,54.327718,-2.746685,09:00,15:00,09:00,15:00,09:00,15:00,09:00,15:00,09:00,15:00,,,,
Lloyds Bank,30844300,Physical,Darlington,Darlington,DL1 1TL,54.526459,-1.554563,09:00,16:00,09:00,16:00,09:00,16:00,09:00,16:00,09:00,16:00,09:00,13:00,,
Lloyds Bank,30981300,Physical,Stockton-on-Tees,Stockton-on-Tees,TS18 1SG,54.565068,-1.312459,09:00,15:30,09:00,15:30,09:00,15:30,09:00,15:30,09:00,15:30,,,,
Lloyds Bank,77714300,Physical,Middlesbrough,Middlesbrough,TS1 5BU,54.574984,-1.237361,09:00,17:00,09:00,17:00,09:00,17:00,09:00,17:00,09:00,17:00,09:00,15:00,,
Lloyds Bank,77560700,Physical,Workington,Workington,CA14 2AD,54.643648,-3.547308,09:00,15:30,09:00,15:30,09:00,15:30,09:00,15:30,09:00,15:30,09:00,13:00,,
Lloyds Bank,77201100,Physical,Bishop Auckland,Bishop Auckland,DL14 7EG,54.664422,-1.674804,09:00,15:30,09:00,15:30,09:00,15:30,09:00,15:30,09:00,15:30,,,,
Lloyds Bank,30994700,Physical,Hartlepool,Hartlepool,TS26 9DD,54.683346,-1.216754,09:00,15:30,09:00,15:30,09:00,15:30,09:00,15:30,09:00,15:30,,,,
Lloyds Bank,77204000,Physical,Spennymoor,Spennymoor,DL16 6QF,54.70049,-1.599581,09:00,15:30,09:00,15:30,09:00,15:30,09:00,15:30,09:00,15:30,,,,
Lloyds Bank,77291400,Physical,Peterlee,Peterlee,SR8 1AW,54.759114,-1.333123,09:00,16:00,09:00,16:00,09:00,16:00,09:00,16:00,09:00,16:00,09:00,13:00,,
Lloyds Bank,77202100,Physical,Durham,Durham,DH1 3NL,54.776827,-1.576394,09:00,16:00,09:00,16:00,09:00,16:00,09:00,16:00,09:00,16:00,09:00,15:00,,
Lloyds Bank,77290800,Physical,Seaham,Seaham,SR7 7SD,54.837392,-1.339367,09:00,15:00,09:00,15:00,09:00,15:00,09:00,15:00,09:00,15:00,,,,
Lloyds Bank,77291300,Physical,Houghton le Spring,Houghton le Spring,DH4 4AP,54.843815,-1.471336,09:00,15:30,09:00,15:30,09:00,15:30,09:00,15:30,09:00,15:30,,,,
Lloyds Bank,30847300,Physical,Consett,Consett,DH8 5AE,54.851793,-1.831474,09:00,16:00,09:00,16:00,09:00,16:00,09:00,16:00,09:00,16:00,09:00,13:00,,
Lloyds Bank,77201400,Physical,Chester-le-Street,Chester-le-Street,DH3 3AJ,54.855918,-1.574086,09:00,15:30,09:00,15:30,09:00,15:30,09:00,15:30,09:00,15:30,,,,
Lloyds Bank,77204300,Physical,Stanley (County Durham),Stanley,DH9 0SZ,54.869933,-1.699486,09:00,15:30,09:00,15:30,09:00,15:30,09:00,15:30,09:00,15:30,,,,
Lloyds Bank,77560100,Physical,Carlisle,Carlisle,CA3 8DB,54.893177,-2.93288,09:00,16:00,09:00,16:00,09:00,16:00,09:00,16:00,09:00,16:00,,,,
Lloyds Bank,77291800,Physical,Washington,Washington,NE38 7SA,54.900096,-1.532724,09:00,16:00,09:00,16:00,09:00,16:00,09:00,16:00,09:00,16:00,09:00,13:00,,
Lloyds Bank,30983400,Physical,Sunderland,Sunderland,SR1 1SF,54.906505,-1.382055,09:00,17:00,09:00,17:00,09:00,17:00,09:00,17:00,09:00,17:00,09:00,13:00,,
Lloyds Bank,77203900,Physical,Prudhoe,Prudhoe,NE42 5HN,54.96145,-1.848736,09:00,15:00,09:00,15:00,,,09:00,15:00,09:00,15:00,,,,
Lloyds Bank,30934300,Physical,Gateshead,Gateshead,NE8 1BF,54.962667,-1.60208,09:00,16:00,09:00,16:00,09:00,16:00,09:00,16:00,09:00,16:00,09:00,13:00,,
Lloyds Bank,77201200,Physical,Blaydon-on-Tyne,Blaydon-on-Tyne,NE21 5BY,54.965029,-1.712318,09:00,15:30,09:00,15:30,09:00,15:30,09:00,15:30,09:00,15:30,09:00,13:00,,
Lloyds Bank,30941900,Physical,Hexham,Hexham,NE46 1PA,54.970447,-2.100881,09:00,15:30,09:00,15:30,09:00,15:30,09:00,15:30,09:00,15:30,,,,
Lloyds Bank,30937100,Physical,Newcastle-upon-Tyne,None,NE1 6AG,54.973228,-1.612199,09:00,17:00,09:00,17:00,09:00,17:00,09:00,17:00,09:00,17:00,09:00,15:00,,
Lloyds Bank,77202700,Physical,Heaton,Heaton,NE6 1HN,54.977571,-1.578911,09:00,15:30,09:00,15:30,09:00,15:30,09:00,15:30,09:00,15:30,,,,
Lloyds Bank,77204900,Physical,Wallsend,Wallsend,NE28 8PJ,54.991378,-1.531518,09:00,15:30,09:00,15:30,09:00,15:30,09:00,15:30,09:00,15:30,09:00,13:00,,
Lloyds Bank,30978900,Physical,South Shields,South Shields,NE33 1DT,54.997629,-1.436342,09:00,15:30,09:00,15:30,09:00,15:30,09:00,15:30,09:00,15:30,,,,
Lloyds Bank,30935500,Physical,Gosforth,Gosforth,NE3 1JZ,55.004953,-1.619855,09:00,17:00,09:00,17:00,09:00,17:00,09:00,17:00,09:00,17:00,09:00,13:00,,
Lloyds Bank,30961500,Physical,North Shields,North Shields,NE29 0AU,55.009498,-1.448406,09:00,17:00,09:00,17:00,09:00,17:00,09:00,17:00,09:00,17:00,09:00,13:00,,
Lloyds Bank,77205100,Physical,Whitley Bay,Whitley Bay,NE26 2SY,55.042104,-1.444173,09:00,15:30,09:00,15:30,09:00,15:30,09:00,15:30,09:00,15:30,,,,
Lloyds Bank,30125700,Physical,Cramlington,Cramlington,NE23 6QR,55.085388,-1.58807,09:00,15:30,09:00,15:30,09:00,15:30,09:00,15:30,09:00,15:30,09:00,13:00,,
Lloyds Bank,77201300,Physical,Blyth,Blyth,NE24 1BW,55.126592,-1.509806,09:00,15:30,09:00,15:30,09:00,15:30,09:00,15:30,09:00,15:30,,,,
Lloyds Bank,77200600,Physical,Ashington,Ashington,NE63 9UZ,55.183417,-1.569599,09:00,16:00,09:00,16:00,09:00,16:00,09:00,16:00,09:00,16:00,09:00,13:00,,
Lloyds Bank,30901300,Physical,Alnwick,Alnwick,NE66 1TD,55.413292,-1.705061,09:00,15:30,09:00,15:30,09:00,15:30,09:00,15:30,09:00,15:30,,,,
Lloyds Bank,30908800,Physical,Blackheath, Birmingham,B65 0EB,52.475844,-2.041726,09:00,15:30,09:00,15:30,09:00,15:30,09:00,15:30,09:00,15:30,,,,